URN;Name;Street;Locality;Address;Town;County;Postcode;Number
20040;Acorn's Children's Centre;Vigo Road;;;Andover;Hampshire;SP10 1JZ;01264-336718
20071;All Seasons and Seedlings Children's Centre;Priestlands Road;Pennington;Lymington;New Forest;Hampshire;SO41 8HX;01425-612113
20145;Aviary Children's Centre;Blackbird Road;Nightingale Avenue;;Eastleigh;Hampshire;SO50 9JW;02380-684990
20254;Bunnies Children's Centre;Hatchwarren Community Centre;Longcross Lane;Hatch Warren;Basingstoke;Hampshire;RG22 4XF;01264-735437
20320;Badgers and Home Tree Children's Centre;Bishops Green Community Ct;Beech Road;Bishops Green;Basingstoke;Hampshire;RG20 4AD;01256-357028
20323;Little Petals Children's Centre;Bishops Waltham Library;Bank Street;;Bishops Waltham;Hampshire;SO32 1AN;07949-036682
20370;Hop-a-Long Children's Centre;Botley Primary School;52 High Street;Botley;Eastleigh;Hampshire;SO30 2EA;07792-821550
20399;Branches Children's Centre;Horndean Technology College;Barton Cross;Horndean;;Hampshire;PO8 9PQ;02392-240077
20466;Sovereign and Strawberry Meadow Children's Centre;Brookfield Community School;Brook Lane;Sarisbury Green;Fareham;Hampshire;SO31 7DU;01329-841097
20521;Bushy Leaze Children's Centre;Eastbrooke Road;Alton;;East Hampshire;Hampshire;GU34 2DR;01420-87675
20525;Buttercups and Bunnies Children's Centre;Manor Field Infs School;Haydn Road;Brighton Hill;Basingstoke;Hampshire;RG22 4DH;01256-331574
20527;Butterflies Children's Centre;Manor Infant School;Fernhill Road;"Cove; Farnborough";Rushmoor;Hampshire;GU14 9DX;01252-511556
20537;Cadland and Forest First Children's Centre;Whitefield Road;Holbury;;New Forest;Hampshire;SO45 2HW;02380-890877
20620;Chamberlayne Children's Centre;Chamberlayne Road;;;Eastleigh;Hampshire;SO50 5JL;02380-684990
20622;Caterpillar Hill Children's Centre;Chandlers Ford Library;Oakmount Road;Chandlers Ford;Eastleigh;Hampshire;SO53 2LH;02380-684990
20640;Chase Children's Centre;Budds Lane;Bordon;;East Hampshire;Hampshire;GU35 0JB;01730-269663
20707;Lily Pads and The Courtyard Children's Centre;Chineham Library;Unit E;"Chineham Shopping Centre; Chineham";Basingstoke;Hampshire;RG24 8BQ;01256-357028
20873;Crookhorn Lane Children's Centre;Crookhorn Lane;Purbrook;Waterlooville;Havant;Hampshire;PO7 5QL;02392-264701
20942;Happy Valley Children's Centre;Denmead Infant School;Hambledon Road;Denmead;Winchester;Hampshire;PO7 6PN;07872-503923
21093;"Turners Wood; Fleet Fireflies and Wild Rose Children's Centre";Elvetham Heath Primary School;The Key;Elvetham Heath;Fleet;Hampshire;GU51 1DP;01252-813756
21184;Fleet Fireflies Children's Centre;Fleet Library;236 Fleet Road;;Fleet;Hampshire;GU51 4BX;01252-616909
21198;Forest First Children's Centre;Heather Road;Blackfield;;Southampton;Hampshire;SO45 1DZ;02380-894425
21222;Water Lilies Children's Centre;Frogmore Infant School;Green Lane;Camberley;Hart;Hampshire;GU17 0NY;01252-879254
21392;Little Saplings and Wisteria Children's Centre;Oakwood Infant School;Church Lane;;Hartley Wintney;Hampshire;RG27 8DZ;01252-813756
21395;Haselbridge Children's Centre;Haselworth Primary School;Stone Lane;;Gosport;Hampshire;PO12 1SQ;02392-513777
21409;Haven Children's Centre;Harris Road;;;Gosport;Hampshire;PO13 0UY;01329-232095
21431;Heath Children's Centre;Readon Close;;;Petersfield;Hampshire;GU32 3JL;01730-269663
21508;Hillside Children's Centre;The Crossover Centre;71 Station Road;;Liss;Hampshire;GU33 7AD;01730-269663
21545;Honeycomb Children's Centre;Chiltern Way;;;Basingstoke;Hampshire;RG22 5BB;01256-331574
21643;Keepsake Children's Centre;Portchester Community Centre;Westlands Grove;Portchester;Fareham;Hampshire;PO16 9AD;01329-841097
21679;Reign and Shine Children's Centre;Kings Worthy Primary School;Church Lane;Kings Worthy;Winchester;Hampshire;SO23 7QS;01962-889083
21745;Lanterns Nursery School and Children's Centre;Bereweeke Road;Winchester;;Winchester;Hampshire;SO22 6AJ;01962-893602
21796;Link's Children's Centre;Linnet Close;;Wecock Farm;Cowplain;Hampshire;PO8 9UY;02392-240077
21804;Little Coppice Children's Centre;Botley Road;Fair Oak;;Eastleigh;Hampshire;SO50 7AN;02380-602799
21821;Little Oaks and Sunshine Children's Centre;Romsey Primary School Site;Mercer Way;Romsey;Test Valley;Hampshire;SO51 7PH;01264-336718
21831;Little Waves Children's Centre;St Vincents College Campus;Mill Lane;;Gosport;Hampshire;PO12 4QA;02392-523075
21880;The Courtyard Children's Centre;Lychpit Community Centre;Off Great Binfields Road;Lychpit;Basingstoke;Hampshire;RG24 8TF;
21920;Maple Vue Children's Centre;Belle Vue Infant School;Belle Vue Road;Aldershot;Rushmoor;Hampshire;GU12 4RZ;01252-519920
21963;Wisteria Children's Centre;Bridewell Building;The Bury;"Odiham; Hook";Odiham;Hampshire;RG29 1NB;01252-810904
21989;Merryfields Children's Centre;Neville Lovett School Site;St Anne Grove;;Fareham;Hampshire;PO14 1JJ;01329-841097
21990;"Little Petals; Merry-Go-Round and Happy Valley Children's Centre";Wickham Primary School;Buddens Road;Wickham;Winchester;Hampshire;PO17 5HU;02392-269695
22011;"Mill Hill; Small Steps and Crookhorn Lane Children's Centre";Mill Road;Waterlooville;;Havant;Hampshire;PO7 7DB;02392-240077
22217;Oak Meadow Children's Centre;Tewkesbury Avenue;;;Fareham;Hampshire;PO15 6LL;01329-841097
22240;Octopus Children's Centre;Oakridge Hall for All;Oakridge Village;Forsythia Walk;Basingstoke;Hampshire;RG21 5RG;01256-818514
22264;The Orchard Children's Centre;Emsworth Primary School;Victoria Road;Emsworth;Havant;Hampshire;PO10 7LX;02392-475101
22289;Snowdrops Children's Centre;Overton Community Building;High Street;;Overton;Hampshire;RG25 3HB;01256-331574
22292;Owls Children's Centre;Mayfield Road;Farnborough;;Rushmoor;Hampshire;GU14 8LH;01252-519920
22313;Park Futures Children's Centre;Sandleford Road;Warren Park;;Havant;Hampshire;PO9 4LR;02392-424980
22332;Pathways Children's Centre;Ringwood Library;Christchurch Road;;Ringwood;Hampshire;BH24 1DW;01425-472545
22345;Pebbles Children's Centre;Shakespeare Road;Popley;;Basingstoke;Hampshire;RG24 9BP;01256-357028
22405;Poppies and Water Meadow Children's Centre;Barton Stacey Primary School;The Green;Barton Stacey;Winchester;Hampshire;SO21 3RY;01264-336718
22663;Seedlings Children's Centre;Highwood House;Highwood Road;Brockenhurst;New Forest;Hampshire;SO42 7RY;01590-624489
22676;Sharps Copse and Park Futures Children's Centre;Prospect Lane;;;Havant;Hampshire;PO9 5PE;02392-475101
22763;Sycamore Children's Centre;South Farnborough Junior School;Cunnington Road;;Farnborough;Hampshire;GU14 6PL;01252-519920
22806;Sparklers and The Carroll Children's Centre;Garbett Rd;;;Winchester;Hampshire;SO23 0NY;02392-269695
22816;Spring Meadow Children's Centre;Smannell Road;;;Andover;Hampshire;SP11 6JP;01264-336718
22922;Starfish and The Orchard Children's Centre;Palmerston Road;Hayling Island;;Havant;Hampshire;PO11 9ET;02392-475101
22931;Water Meadow Children's Centre;Stockbridge Primary School;Old London Road;Stockbridge;Test Valley;Hampshire;SO20 6EJ;01264-811089
22967;Stubblee Hill and Sure Start Rowner Children's Centre;Elmore Road;Lee on Solent;;Gosport;Hampshire;PO13 9DY;02392-553816
22979;Sunbeams and Reign and Shine Children's Centre;Sun Hill Junior School;Sun Lane;New Alresford;Alresford;Hampshire;SO24 9NB;02392-269695
23001;Sunflowers Children's Centre;Park Primary Schools Campus;Gloucester Road;;Aldershot;Hampshire;GU11 3SL;07525-104015
23061;Sure Start Rowner Children's Centre;Siskin Schools Campus;Nimrod drive;;Gosport;Hampshire;PO13 8AA;02392-513777
23106;Home Tree Children's Centre;Tadley Community Centre;Newchurch Road;Tadley;Tadley;Hampshire;RG26 4HN;01264-735437
23161;The Bridges and Pathways Children's Centre;Penny's Lane;Fordingbridge;;New Forest;Hampshire;SP6 1HJ;01425-612113
23165;The Carroll Children's Centre;The Carroll;Somers Close;;Winchester;Hampshire;SO22 4EJ;01962-840022
23195;The Harbour Children's Centre;School Road;Eling;Totton;New Forest;Hampshire;SO40 9HX;02380-668683
23234;The Patch and The Harbour Children's Centre;Calmore Community Centre;Calmore Drive;Calmore;New Forest;Hampshire;SO40 2ZU;02380-890877
23236;The Phoenix Children and Young People's Centre;New Milton Youth Centre;Culver Road;New Milton;New Forest;Hampshire;BH25 6SY;01425-612113
23267;The Tree House and Little Waves Children's Centre;Elson Infant School Site;;;Gosport;Hampshire;PO12 4EU;02392-513777
23274;The Waterside Children's Centre;Ashford Crescent;Hythe;;New Forest;Hampshire;SO45 6ET;02380-890877
23278;"The West End Gateway; The Nest and Hop-a-Long Children's Centre";Townhill Farm Community Centre;Townhill Way;West End;Eastleigh;Hampshire;SO18 3RA;02380-602799
23284;The Windmill and Sails Children's Centre;Bursledon Infant & Junior School Site;Long lane;Bursledon;Eastleigh;Hampshire;SO31 8BZ;02380-602799
23346;Tree Tops and Hillside Children's Centre;Liphook Library;London Road;;Liphook;Hampshire;GU30 7AN;01730-269663
23358;Trospacc Children's Centre;Stockheath Lane;;;Havant;Hampshire;PO9 3BD;02392-475101
23369;Wild Rose Children's Centre;Tweseldown Road;Church Crookham;;Hart;Hampshire;GU52 8BW;01252-810904
23548;Westside Children's Centre;West Side Community Centre;Paddock Road;South Ham;Basingstoke;Hampshire;RG22 6QB;01256-331574
23591;The Nest Children's Centre;Wildern Clinic;Wildern School;Wildern Lane;Hedge End;Hampshire;SO30 4EJ;01489-796395
23710;Woodlark and Water Lilies Children's Centre;Yateley Secondary School;School Lane;;Yateley;Hampshire;GU46 6NW;01252-813756
113586;St Thoma's More School;Fallapit House;East Allington;;Totnes;Devon;TQ9 7QF;
115830;Haven Early Years Centre;Harris Road;;;Gosport;Hampshire;PO13 0UY;1329232095
115833;Austen Pupil Referral Unit;Chiltern Way;Worting Junior School;;Basingstoke;Hampshire;RG22 5BB;
115834;Ashwood Education Centre;Ashwood Way;Winklebury;;Basingstoke;Hampshire;RG23 8AA;
115835;Chawton Park Pupil Referral Unit;Chawton Park Road;;;Alton;Hampshire;GU34 1RQ;
115836;Rowhill School;York Road;;;Aldershot;Hampshire;GU11 3JG;1252367500
115837;Smannell Field School;Smannell Road;;;Andover;Hampshire;SP11 6JP;1264335640
115838;The Bridge Education Centre;2c Newtown Road;;;Eastleigh;Hampshire;SO50 9DB;2380629306
115840;Woodlands Education Centre;Park House Farm Way;;;Havant;Hampshire;PO9 4AJ;
115847;Greenwood School;Cabot Drive;Dibden;;Southampton;Hampshire;SO45 5UQ;2380423827
115848;Phoenix Pupil Referral Unit;Lunedale Road;Dibden Purlieu;;Southampton;Hampshire;SO45 4QN;
115849;Lord Wilson School;Montefiore Drive;Sarisbury Green;;Southampton;Hampshire;SO31 7NL;
115850;Alton Infant School;Normandy Street;;;Alton;Hampshire;GU34 1DH;142083857
115851;Anstey Junior School;Eastbrooke Road;;;Alton;Hampshire;GU34 2DR;142084486
115852;Balksbury Junior School;Floral Way;Salisbury Road;;Andover;Hampshire;SP10 3QP;1264365642
115853;Portway Junior School;Upper Drove;;Upper Drove;Andover;Hampshire;SP10 3NA;1264352060
115854;Anton Junior School;Barlows Lane;;;Andover;Hampshire;SP10 2HA;1264352845
115855;Ashley Infant School;Lower Ashley Road;Ashley;;New Milton;Hampshire;BH25 5AA;1425611321
115856;Awbridge Primary School;Danes Road;Awbridge;;Romsey;Hampshire;SO51 0HL;
115857;Portway Infant School;Ashfield Road;;;Andover;Hampshire;SP10 3PE;1264323716
115858;Winklebury Junior School;Willoughby Way;Off Winklebury Way;;Basingstoke;Hampshire;RG23 8AF;1256323244
115859;Oakridge Infant School;Oakridge Road;;;Basingstoke;Hampshire;RG21 5RR;1256321579
115860;South View Junior School;Shooters Way;;;Basingstoke;Hampshire;RG21 5LL;1256321928
115861;Beaulieu Village Primary School;High Street;Beaulieu;;Brockenhurst;Hampshire;SO42 7YD;1590612255
115862;Stoke Park Infant School;Abbotsbury Road;Bishopstoke;;Eastleigh;Hampshire;SO50 8NZ;2380601773
115863;Bishops Waltham Infant School;Oak Road;Bishops Waltham;;Southampton;Hampshire;SO32 1EP;1489892375
115864;Bordon Junior School;Budds Lane;;;Bordon;Hampshire;GU35 0JB;
115865;Bordon Infant School;Budds Lane;;;Bordon;Hampshire;GU35 0JB;1420472358
115866;Braishfield Primary School;Common Hill Road;Braishfield;;Romsey;Hampshire;SO51 0QF;1794368359
115867;Broughton Primary School;School Lane;Broughton;;Stockbridge;Hampshire;SO20 8AN;1794301286
115868;Burghclere Primary School;Church Lane;;;Newbury;Berkshire;RG20 9HT;1635278523
115869;Buriton Primary School;High Street;Buriton;;Petersfield;Hampshire;GU31 5RX;1730263526
115870;Burley Primary School;Church Lane;Burley;;Ringwood;Hampshire;BH24 4AP;1425403375
115871;Stoke Park Junior School;Underwood Road;Bishopstoke;;Eastleigh;Hampshire;SO50 6GR;2380612789
115872;Chandler's Ford Infant School;Kings Road;Chandler's Ford;;Eastleigh;Hampshire;SO53 2EY;2380252655
115873;Merdon Junior School;Merdon Avenue;Chandler's Ford;;Eastleigh;Hampshire;SO53 1EJ;2380265255
115874;Cheriton Primary School;Cheriton;;;Alresford;Hampshire;SO24 0QA;1962771278
115875;North Baddesley Infant School;Botley Road;North Baddesley;;Southampton;Hampshire;SO52 9EE;2380412412
115876;Clanfield Junior School;Little Hyden Lane;Clanfield;;Waterlooville;Hampshire;PO8 0RE;2392593209
115877;Cliddesden Primary School;Cliddesden;;;Basingstoke;Hampshire;RG25 2QU;1256321571
115878;Crondall Primary School;Croft Lane;Crondall;;Farnham;Hampshire;GU10 5QG;1252850291
115879;Curdridge Primary School;Church Lane;Curdridge;Near Botley;Southampton;Hampshire;SO32 2DR;1489782613
115880;Crofton Anne Dale Junior School;Cuckoo Lane;Stubbington;;Fareham;Hampshire;PO14 3PH;1329662087
115881;Droxford Junior School;Union Lane;Droxford;;Southampton;Hampshire;SO32 3QR;1489877537
115882;Denmead Infant School;Hambledon Road;Denmead;;Waterlooville;Hampshire;PO7 6PN;2392262717
115883;Wildground Junior School;Armitage Avenue;Dibden Purlieu;;Southampton;Hampshire;SO45 4LG;2380844001
115884;Fryern Junior School;Oakmount Road;Chandler's Ford;;Eastleigh;Hampshire;SO53 2LN;2380254155
115885;Wildground Infant School;Crete Road;Dibden Purlieu;;Southampton;Hampshire;SO45 4JX;2380844001
115886;The Crescent Primary School;The Crescent Primary School;Toynbee Road;;Eastleigh;Hampshire;SO50 9DH;2380612536
115887;Cherbourg Primary School;Cherbourg Road;;;Eastleigh;Hampshire;SO50 5QF;2380612557
115888;Shakespeare Infant School;Shakespeare Road;;;Eastleigh;Hampshire;SO50 4FZ;2380573888
115889;Wallisdean Junior School;Wallisdean Avenue;;;Fareham;Hampshire;PO14 1HU;1329232571
115890;Uplands Primary School;Morshead Crescent;;;Fareham;Hampshire;PO16 7QP;1329232878
115891;Fair Oak Infant School;Botley Road;Fair Oak;;Eastleigh;Hampshire;SO50 7AN;2380692207
115892;Redlands Primary School;Redlands Lane;;;Fareham;Hampshire;PO16 0UD;1329234012
115893;Wallisdean Infant School;Wallisdean Avenue;;;Fareham;Hampshire;PO14 1HT;1329280827
115894;Fawley Infant School;Calshot Road;Fawley;;Southampton;Hampshire;SO45 1EA;
115895;Blackfield Infant School;Hampton Lane;Blackfield;;Southampton;Hampshire;SO45 1XA;
115896;Fareham Park Infant School;Tewkesbury Avenue;;;Fareham;Hampshire;PO15 6LL;
115897;Grateley Primary School;Grateley;;;Andover;Hampshire;SP11 8JS;1264889240
115898;Greatham Primary School;Petersfield Road;Greatham;;Liss;Hampshire;GU33 6HA;1420538224
115899;Waterside Primary School;Ashford Crescent;Hythe;;Southampton;Hampshire;SO45 6ET;2380842143
115900;Hale Primary School;Hatchett Green;Hale;;Fordingbridge;Hampshire;SP6 2NE;1725510436
115901;Hamble Primary School;Hamble Lane;Hamble;;Southampton;Hampshire;SO31 4ND;2380453298
115902;Hambledon Primary School;Church Lane;Hambledon;;Waterlooville;Hampshire;PO7 4RT;2392632440
115903;Oakwood Infant School;Church Lane;Hartley Wintney;;Hook;Hampshire;RG27 8DY;1252842663
115904;Fairfield Infant School;Fairfield Road;;;Havant;Hampshire;PO9 1AY;2392483029
115905;Barncroft Junior School;Barncroft Way;Bedhampton;;Havant;Hampshire;PO9 3AG;
115906;Barncroft Infant School;Barncroft Way;Leigh Park;;Havant;Hampshire;PO9 3AG;
115907;Front Lawn Infant School;Broadmere Avenue;;;Havant;Hampshire;PO9 5HX;
115908;Riders Junior School;Kingsclere Avenue;Leigh Park;;Havant;Hampshire;PO9 4RY;2392475342
115909;Riders Infant School;Kingsclere Avenue;Leigh Park;;Havant;Hampshire;PO9 4RY;2392475342
115910;Sharps Copse Infant School;Prospect Lane;West Leigh;;Havant;Hampshire;PO9 5PE;
115911;Trosnant Junior School;Stockheath Lane;Leigh Park;;Havant;Hampshire;PO9 3BD;2392475606
115912;Trosnant Infant School;Stockheath Lane;Leigh Park;;Havant;Hampshire;PO9 3BD;2392475606
115913;Hawley Primary School;Hawley Road;Blackwater;;Camberley;Surrey;GU17 9BH;127631048
115914;Mill Rythe Junior School;Havant Road;;;Hayling Island;Hampshire;PO11 0PA;2392463663
115915;Tiptoe Primary School;Wootton Road;Tiptoe;;Lymington;Hampshire;SO41 6FU;1590682375
115916;Hythe Primary School;School Road;Hythe;;Southampton;Hampshire;SO45 6BL;2380843206
115917;Langdown Junior School;Ashford Crescent;Hythe;;Southampton;Hampshire;SO45 6ET;
115918;Freegrounds Infant School;Hobb Lane;Hedge End;;Southampton;Hampshire;SO30 0GG;1489782075
115919;Bosmere Junior School;South Street;;;Havant;Hampshire;PO9 1DA;2392482988
115920;Itchen Abbas Primary School;School Lane;Itchen Abbas;;Winchester;Hampshire;SO21 1BE;1962779310
115921;Ashford Hill Primary School;Ashford Hill Road;Ashford Hill;;THATCHAM;Berkshire;RG19 8BB;1189813822
115922;Kings Worthy Primary School;Church Lane;Kings Worthy;;Winchester;Hampshire;SO23 7QS;1962881410
115923;Sharps Copse Junior School;Prospect Lane;Leigh Park;;Havant;Hampshire;PO9 5PE;
115924;Langrish Primary School;Ramsdean Road;Stroud;;Petersfield;Hampshire;GU32 3PJ;1730263883
115925;Liss Junior School;Hillbrow Road;;;Liss;Hampshire;GU33 7LQ;1730892292
115926;Locks Heath Junior School;Warsash Road;Locks Heath;;Southampton;Hampshire;SO31 9NZ;1489572226
115927;Micheldever Primary School;Church Street;Micheldever;;Winchester;Hampshire;SO21 3DB;
115928;New Milton Infant School;Lymington Road;;;New Milton;Hampshire;BH25 6PZ;1425610568
115929;New Milton Junior School;Old Milton Road;;;New Milton;Hampshire;BH25 6DS;1425614633
115930;Sun Hill Junior School;Sun Lane;;;Alresford;Hampshire;SO24 9NB;
115931;Newtown Soberton Infant School;Church Road;Newtown;;Fareham;Hampshire;PO17 6LJ;1329833161
115932;North Waltham Primary School;Church Road;North Waltham;;Basingstoke;Hampshire;RG25 2BL;1256397344
115933;Buryfields Infant School;Buryfields;Odiham;;Hook;Hampshire;RG29 1NE;1256702667
115934;Owslebury Primary School;Beech Grove;Owslebury;;Winchester;Hampshire;SO21 1LS;1962777452
115935;Northern Junior School;Richmond Rise;Portchester;;Fareham;Hampshire;PO16 8DG;2392370613
115936;Petersfield Infant School;St Peter's Road;;;Petersfield;Hampshire;GU32 3HX;1730263048
115937;Purbrook Infant School;Aldermoor Road East;Purbrook;;Waterlooville;Hampshire;PO7 5NQ;2392610761
115938;Wicor Primary School;Hatherley Crescent;Portchester;;Fareham;Hampshire;PO16 9DL;1329237412
115939;Springwood Infant School;Springwood Avenue;;;Waterlooville;Hampshire;PO7 8ED;2392262078
115940;Herne Junior School;Love Lane;;Herne Junior School;Petersfield;Hampshire;GU31 4BP;1730263746
115941;Romsey Infant School;Plaza Parade;Winchester Road;;Romsey;Hampshire;SO51 8JA;
115942;Romsey Junior School;Mercer Way;;;Romsey;Hampshire;SO51 7PH;
115943;Ringwood Junior School;Hightown Road;;;Ringwood;Hampshire;BH24 1NH;1425473554
115944;Cupernham Junior School;Bransley Close;;;Romsey;Hampshire;SO51 7JT;1794512702
115945;St Mary Bourne Primary School;School Lane;St Mary Bourne;;Andover;Hampshire;SP11 6AU;1264738336
115946;Sheet Primary School;School Lane;Sheet;;Petersfield;Hampshire;GU32 2AS;1730263310
115947;Shipton Bellinger Primary School;3 Parkhouse Road;Shipton Bellinger;;Tidworth;Hampshire;SP9 7TW;1980843369
115948;Sopley Primary School;South Ripley;Bransgore;;Christchurch;Dorset;BH23 8ET;1425672343
115949;Stockbridge Primary & Pre-School;Old London Road;;;Stockbridge;Hampshire;SO20 6EJ;1264810550
115950;Burnham Copse Junior School;Newchurch Road;;;Tadley;Hampshire;RG26 4HN;
115951;Burnham Copse Infant School;New Church Road;;;Tadley;Hampshire;RG26 4HN;
115952;Tadley Community Primary School;The Green;;;Tadley;Hampshire;RG26 3PB;1189813805
115953;Titchfield Primary School;Southampton Road;Titchfield;;Fareham;Hampshire;PO14 4AU;1329843322
115954;Lydlynch Infant School;"Lydlynch Road;";Totton;;Southampton;Hampshire;SO40 3DW;2380863188
115955;Eling Infant School and Nursery;School Road;Totton;;Southampton;Hampshire;SO40 9HX;2380862267
115956;Foxhills Junior School;Foxhills Lane;Ashurst;New Forest;Southampton;Hampshire;SO40 7ED;2380292126
115957;Wallop Primary School;School Lane;Nether Wallop;;Stockbridge;Hampshire;SO20 8EH;1264781216
115958;Waite End Junior School;Mill Road;;;Waterlooville;Hampshire;PO7 7DB;
115959;Wellow School;Romsey Road;West Wellow;;Romsey;Hampshire;SO51 6BG;
115960;Wherwell Primary School;Wherwell;;;Andover;Hampshire;SP11 7JP;1264860384
115961;Weyford Infant School;Mill Chase Road;;;Bordon;Hampshire;GU35 0EP;
115962;Stanmore Primary School;Stanmore Lane;Stanmore;;Winchester;Hampshire;SO22 4AJ;1962852941
115963;Winnall Primary School;Garbett Road;Winnall;;Winchester;Hampshire;SO23 0NY;1962853889
115964;Padnell Junior School;Padnell Road;Cowplain;;Waterlooville;Hampshire;PO8 8EA;2392252752
115965;Padnell Infant School;Padnell Avenue;Cowplain;;Waterlooville;Hampshire;PO8 8DS;2392263784
115966;Hart Plain Infant School;Hart Plain Avenue;Cowplain;;Hants;Hampshire;PO8 8RZ;2392262511
115967;Crofton Anne Dale Infant School;Cuckoo Lane;Stubbington;;Fareham;Hampshire;PO14 3PH;1329662025
115968;Fryern Infant School;Oakmount Road;Chandler's Ford;;Eastleigh;Hampshire;SO53 2LN;2380265931
115969;Vigo Junior School;Vigo Road;;;Andover;Hampshire;SP10 1JZ;
115970;Vigo Primary School;Vigo Road;;;Andover;Hampshire;SP10 1JZ;1264365166
115971;Winklebury Infant School;Willoughby Way;Winklebury;;Basingstoke;Hampshire;RG23 8AF;1256323244
115972;Shamblehurst Primary School;Wildern Lane;Hedge End;;Southampton;Hampshire;SO30 4EJ;1489782342
115973;Anton Infant School;Wellesley Road;;Anton Infant School;Andover;Hampshire;SP10 2HF;1264365168
115974;Oakridge Junior School;Oakridge Road;;;Basingstoke;Hampshire;RG21 5RR;1256473545
115975;South View Infant and Nursery School;Off Shooters Way;;;Basingstoke;Hampshire;RG21 5LL;1256321928
115976;Church Crookham Junior School;Tweseldown Road;;;Fleet;Hampshire;GU52 8BW;1252617664
115977;Orchard Infant School;Water Lane;Dibden Purlieu;;Southampton;Hampshire;SO45 4SB;2380843705
115978;Chineham Park Junior School;Shakespeare Road;Popley;;Basingstoke;Hampshire;RG24 9BP;
115979;Chineham Park Infant School;Shakespeare Road;Popley;;Basingstoke;Hampshire;RG24 9BP;
115980;Hiltingbury Infant School;Hiltingbury Road;Chandler's Ford;;Eastleigh;Hampshire;SO53 5NP;2380265414
115981;Frogmore Infant School;Green Lane;Frogmore;;Camberley;Surrey;GU17 0NY;1252872601
115982;Horndean Infant School;Merchistoun Road;Horndean;;Waterlooville;Hampshire;PO8 9LS;2392593453
115983;Pennington Infant School;Priestlands Road;Pennington;;Lymington;Hampshire;SO41 8HX;1590672910
115984;Westfields Junior School;School Lane;;;Yateley;Hampshire;GU46 6NN;1252408218
115985;Wootey Infant School;Wooteys Way;;;Alton;Hampshire;GU34 2JA;142083656
115986;Mengham Infant School;St Mary's Road;;;Hayling Island;Hampshire;PO11 9DD;2392462470
115987;Holbury Junior School;Whitefield Road;Holbury;;Southampton;Hampshire;SO45 2HW;
115988;Orchard Junior School;Water Lane;Dibden Purlieu;;Southampton;Hampshire;SO45 4SB;2380843162
115989;Locks Heath Infant School;Warsash Road;Locks Heath;;Southampton;Hampshire;SO31 9NZ;1489584180
115990;Harrison Primary School;Harrison Road;;;Fareham;Hampshire;PO16 7EQ;1329234016
115991;Warren Park Primary School;Sandleford Road;Leigh Park;;Havant;Hampshire;PO9 4LR;2392475502
115992;Sun Hill Infant School;Sun Lane;;;Alresford;Hampshire;SO24 9NB;1962732632
115993;Oakfield Primary School;Sylvia Crescent;Totton;;Southampton;Hampshire;SO40 3LN;
115994;Westfields Infant School;School Lane;;;Yateley;Hampshire;GU46 6NN;1252873603
115995;Shepherds Spring Junior School;Smannell Road;;;Andover;Hampshire;SP11 6JP;
115996;Shepherds Spring Infant School;Smannell Road;;;Andover;Hampshire;SP11 6JR;
115997;Fair Oak Junior School;Botley Road;Fair Oak;;Eastleigh;Hampshire;SO50 7AN;2380693195
115998;North Baddesley Junior School;Fleming Avenue;North Baddesley;;Southampton;Hampshire;SO52 9EP;2380411100
115999;Poulner Junior School;North Poulner Road;North Poulner;;Ringwood;Hampshire;BH24 3LA;1425474590
116000;Freegrounds Junior School;Hobb Lane;Hedge End;;Southampton;Hampshire;SO30 0GG;1489782295
116001;Merton Junior School;Romsey Close;Popley Way;;Basingstoke;Hampshire;RG24 9HB;1256326573
116002;Heatherside Infant School;Reading Road South;;;Fleet;Hampshire;GU52 7TH;1252617101
116003;Fleet Infant School;Velmead Road;;;Fleet;Hampshire;GU52 7LQ;1252613582
116004;Merton Infant School;Romsey Close;Popley Way;Popley;Basingstoke;Hampshire;RG24 9HB;1256324507
116005;Castle Hill Primary School;Winklebury Way;;;Basingstoke;Hampshire;RG23 8BN;1256473777
116006;Bishop's Waltham Junior School;Oak Road;Bishops Waltham;;Southampton;Hampshire;SO32 1EP;1489892368
116007;Hiltingbury Junior School;Hiltingbury Road;Chandler's Ford;;Eastleigh;Hampshire;SO53 5NP;2380261808
116008;Meadowlands Infant School;35 Woodcroft Lane;Lovedean;;Waterlooville;Hampshire;PO8 9QG;
116009;Crofton Hammond Infant School;Mancroft Avenue;Stubbington;;Fareham;Hampshire;PO14 2DE;1329663733
116010;Heatherside Junior School;Reading Road South;;;Fleet;Hampshire;GU52 7TH;1252617928
116011;Frogmore Junior School;Green Lane;Frogmore;;Camberley;Surrey;GU17 0NY;
116012;Sarisbury Infant School;Barnes Lane;Sarisbury Green;;Southampton;Hampshire;SO31 7BJ;1489573800
116013;Bishopswood Junior School;Barlows Road;;;Tadley;Hampshire;RG26 3NA;1189812738
116014;Knight's Enham Junior School;King Arthur's Way;;;Andover;Hampshire;SP10 4BS;1264394777
116015;Manor Field Junior School;Haydn Road;Brighton Hill;;Basingstoke;Hampshire;RG22 4DH;1256329826
116016;Kempshott Junior School;Old Down Close;Homesteads Road;Kempshott;Basingstoke;Hampshire;RG22 5LL;1256326713
116017;Marnel Junior School;Shetland Road;Popley Way;;Basingstoke;Hampshire;RG24 9PT;
116018;Weyford Nursery and Primary School;Weyford Nursery and Primary School;;Mill Chase Road;Bordon;Hampshire;GU35 0ET;
116019;Ranvilles Junior School;Oldbury Way;;;Fareham;Hampshire;PO14 3BN;1329841679
116020;Tweseldown Infant School;Nepal Gardens;Church Crookham;;Fleet;Hampshire;GU52 8LL;1252628843
116021;Liss Infant School;Hillbrow Road;;;Liss;Hampshire;GU33 7LQ;1730892666
116022;Purbrook Junior School;Aldermoor Road East;Purbrook;;Waterlooville;Hampshire;PO7 5NQ;2392254577
116023;Marnel Community Infant School;Shetland Road;Popley Way;;Basingstoke;Hampshire;RG24 9PT;1256329521
116024;Foxhills Infant School;Foxhills;Colbury;;Southampton;Hampshire;SO40 7ED;2380292453
116025;The Butts Primary School;Bolle Road;;;Alton;Hampshire;GU34 1PW;142084102
116026;Knights Enham Nursery and Infant School;King Arthurs Way;;;Andover;Hampshire;SP10 4BS;1264352151
116027;Bursledon Junior School(CA);Long Lane;Bursledon;;Southampton;Hampshire;SO31 8BZ;2380402738
116028;Ranvilles Infant School;Oldbury Way;;;Fareham;Hampshire;PO14 3BN;1329841653
116029;Holbury Infant School;Whitefield Road;Holbury;;Southampton;Hampshire;SO45 2HW;
116030;Northern Infant School;Richmond Rise;Portchester;;Fareham;Hampshire;PO16 8DG;2392370693
116031;Poulner Infant School and Nursery;North Poulner Road;;;Ringwood;Hampshire;BH24 3LA;1425472338
116032;Halterworth Community Primary School;Halterworth Lane;;;Romsey;Hampshire;SO51 9AD;
116033;Park Gate Primary School;Northmore Road;Park Gate;;Southampton;Hampshire;SO31 6LX;1489575444
116034;South Wonston Primary School;Downs Road;South Wonston;;Winchester;Hampshire;SO21 3EH;1962881311
116035;Bishopswood Infant School;Barlows Road;;;Tadley;Hampshire;RG26 3NA;1189812836
116036;Kempshott Infant School;Old Down Close;Homestead Road;Kempshott;Basingstoke;Hampshire;RG22 5LL;1256461795
116037;Wootey Junior School;Wooteys Way;;;Alton;Hampshire;GU34 2JA;142082532
116038;Roman Way Primary School;Roman Way;;;Andover;Hampshire;SP10 5JY;1264352118
116039;Old Basing Infant School;Milkingpen Lane;Old Basing;;Basingstoke;Hampshire;RG24 7DL;1256325704
116040;Rucstall Primary School;Holbein Close;Black Dam;;Basingstoke;Hampshire;RG21 3EX;1256466524
116041;Castle Hill Infant School;Greenbank;Winklebury Way;;Basingstoke;Hampshire;RG23 8BN;1256326899
116042;Scantabout Primary School;Ionic Close;Chandler's Ford;;Eastleigh;Hampshire;SO53 2NR;2380266892
116043;Denmead Junior School;Bere Road;Denmead;;Waterlooville;Hampshire;PO7 6PH;2392252735
116044;Tavistock Infant School;Broadacres;Calthorpe Park;;Fleet;Hampshire;GU51 4EB;1252616778
116045;Hook Junior School;Ravenscroft;;;Hook;Hampshire;RG27 9NN;1256762468
116046;Olivers Battery Primary School;Austen Avenue;Olivers Battery;;Winchester;Hampshire;SO22 4HP;1962869496
116047;Oakley Infant School;Oakley Lane;Oakley;;Basingstoke;Hampshire;RG23 7JZ;1256780445
116048;Cupernham Infant School;Bransley Close;Woodley Lane;;Romsey;Hampshire;SO51 7JT;1794514494
116049;Calmore Infant School;Calmore Drive;Calmore;;Southampton;Hampshire;SO40 2ZZ;2380865994
116050;Yateley Infant School;Cranford Park Drive;;;Yateley;Hampshire;GU46 6LB;
116051;Lymington Junior School;Avenue Road;;;Lymington;Hampshire;SO41 9GP;1590674383
116052;Mengham Junior School;Palmerston Road;;;Hayling Island;Hampshire;PO11 9ET;2392462162
116053;Bidbury Junior School;Fraser Road;Bedhampton;;Havant;Hampshire;PO9 3EF;2392474513
116054;Velmead Junior School;Velmead Road;;;Fleet;Hampshire;GU52 7LG;1252628704
116055;Manor Field Infant School;Haydn Road;Brighton Hill;;Basingstoke;Hampshire;RG22 4DH;1256350300
116056;Liphook Infant School;Avenue Close;;Liphook Infant School;Liphook;Hampshire;GU30 7QE;1428722036
116057;Chalk Ridge Primary School;Sullivan Road;Brighton Hill;;Basingstoke;Hampshire;RG22 4ER;1256461733
116058;Crofton Hammond Junior School;Mancroft Avenue;Stubbington;;Fareham;Hampshire;PO14 2DE;1329664451
116059;Potley Hill Primary School;Potley Hill Road;;Potley Hill Primary School;Yateley;Hampshire;GU46 6AG;1252876106
116060;Kings Copse Primary School;Kings Copse Road;Hedge End;;Southampton;Hampshire;SO30 0PQ;1489785040
116061;Netley Abbey Junior School;Westwood Road;Netley Abbey;;Southampton;Hampshire;SO31 5EL;2380453731
116062;Waite End Infant School;Mill Road;;;Waterlooville;Hampshire;PO7 7DB;
116063;Balksbury Infant School;Floral Way;Salisbury Road;;Andover;Hampshire;SP10 3QP;1264352801
116064;Beech Down Primary School;Gershwin Road;Brighton Hill;;Basingstoke;Hampshire;RG22 4HQ;
116065;Petersgate Infant School;Green Lane;Clanfield;;Waterlooville;Hampshire;PO8 0JU;2392593950
116066;Manor Infant School;Teachers Way;Hardley;;Southampton;Hampshire;SO45 2QG;
116067;Springwood Junior School;Springwood Avenue;;;Waterlooville;Hampshire;PO7 8ED;2392258011
116068;Fordingbridge Junior School;Pennys Lane;;;Fordingbridge;Hampshire;SP6 1HJ;1425652285
116069;Fordingbridge Infant School;Pennys Lane;;;Fordingbridge;Hampshire;SP6 1HJ;1425653624
116070;Netley Abbey Infant School;Westwood Road;Netley Abbey;;Southampton;Hampshire;SO31 5EL;2380452263
116071;Greenfields Junior School;Green Lane;Hartley Wintney;;Hook;Hampshire;RG27 8DQ;1252843822
116072;Shakespeare Junior School;St Catherine's Road;;;Eastleigh;Hampshire;SO50 4JT;2380618905
116073;Marchwood Junior School;Main Road;Marchwood;;Southampton;Hampshire;SO40 4ZH;2380863105
116074;Colden Common Primary School;Upper Moors Road;Brambridge;;Eastleigh;Hampshire;SO50 6HW;1962712111
116075;Mayhill Junior School;The Bury;Odiham;;Hook;Hampshire;RG29 1NB;1256702973
116076;Woolton Hill Junior School;Woolton Hill;;;Newbury;Berkshire;RG20 9XE;1635253364
116077;Woodlands Primary School;Eagle Avenue;Cowplain;;Waterlooville;Hampshire;PO8 9XP;
116078;Norwood Primary School;Chamberlayne Road;;;Eastleigh;Hampshire;SO50 5JL;2380322582
116079;Red Barn Community Primary School;Linden Lea;Portchester;;Fareham;Hampshire;PO16 8HJ;1329288011
116080;Newlands Primary School;Dungells Lane;;;Yateley;Hampshire;GU46 6EY;1252871188
116081;Rookwood Infants' School;Penshurst Way;Boyatt Wood;;Eastleigh;Hampshire;SO50 4RJ;
116082;Four Lanes Infant School;Hanmore Road;Chineham;;Basingstoke;Hampshire;RG24 8PQ;1256324256
116083;Castle Primary School;Castle Street;Portchester;;Fareham;Hampshire;PO16 9QQ;2392375324
116084;Bidbury Infant School;Fraser Road;Bedhampton;;Havant;Hampshire;PO9 3EF;2392483336
116137;Hatch Warren Infant School;Gershwin Road;;;Basingstoke;Hampshire;RG22 4PQ;1256350313
116139;West End Infant School;York Road;;;Aldershot;Hampshire;GU11 3JG;
116140;Cove Junior School;Fernhill Road;Cove;;Farnborough;Hampshire;GU14 9SA;1252542941
116141;Cove Infant School;92 Fernhill Road;Cove;;Farnborough;Hampshire;GU14 9DP;1252543737
116142;Tower Hill Primary School;Fowler Road;;;Farnborough;Hampshire;GU14 0BW;1252541786
116143;Marlborough Infant School;Redvers Buller Road;;;Aldershot;Hampshire;GU11 2HR;1252323910
116144;South Farnborough Infant School;Queen's Road;;;Farnborough;Hampshire;GU14 6JU;1252543727
116145;North Farnborough Infant School;Rectory Road;;;Farnborough;Hampshire;GU14 8AJ;1252544606
116146;Manor Junior School;Fernhill Road;Cove;;Farnborough;Hampshire;GU14 9DX;1252544072
116147;Grange Community Junior School;Wren Way;Prospect Estate;;Farnborough;Hampshire;GU14 8TA;1252542196
116148;Farnborough Grange Nursery/Infant Community School;Moor Road;;;Farnborough;Hampshire;GU14 8HW;
116149;Talavera Junior School;Gun Hill;;;Aldershot;Hampshire;GU11 1RG;1252322156
116150;Manor Infant School;Fernhill Road;Cove;;Farnborough;Hampshire;GU14 9DX;1252543348
116151;Talavera Infant School;Gun Hill;;;Aldershot;Hampshire;GU11 1RG;1252323137
116152;Mayfield Junior School;Mayfield Road;;;Farnborough;Hampshire;GU14 8LH;
116153;Mayfield Community Infant School;Aldwick Close;;;Farnborough;Hampshire;GU14 8LH;
116154;Parsonage Farm Nursery and Infant School;Cherry Tree Close;;;Farnborough;Hampshire;GU14 9TT;1252548003
116155;South Farnborough Junior School;Cunnington Road;;;Farnborough;Hampshire;GU14 6PL;1252545682
116156;Beaumont Junior School;Alexandra Road;;;Aldershot;Hampshire;GU11 1QJ;
116157;Guillemont Junior School;Sandy Lane;;;Farnborough;Hampshire;GU14 9ES;1252666846
116158;Pinewood Infant School;Pinewood Park;;;Farnborough;Hampshire;GU14 9LE;1252511885
116161;Brockhurst Junior School;Avery Lane;;;Gosport;Hampshire;PO12 4SL;
116162;Elson Junior School;Exmouth Road;;;Gosport;Hampshire;PO12 4EX;2392583754
116163;Elson Infant School;Elson Lane;;;Gosport;Hampshire;PO12 4EU;2392581208
116164;Lee-on-the-Solent Junior School;Salisbury Terrace;;;Lee-on-the-Solent;Hampshire;PO13 9DL;2392550551
116165;Haselworth Primary School;Stone Lane;;;Gosport;Hampshire;PO12 1SQ;2392583657
116166;Woodcot Primary School;Tukes Avenue;Bridgemary;;Gosport;Hampshire;PO13 0SG;
116167;Rowner Junior School;Tichborne Way;Rowner;;Gosport;Hampshire;PO13 0BN;
116168;Rowner Infant School;Copse Lane;Rowner;;Gosport;Hampshire;PO13 0DH;1329280807
116169;Alverstoke Community Infant School;Ashburton Road;Alverstoke;;Gosport;Hampshire;PO12 2LH;2392582403
116170;Grange Junior School;Grange Lane;;;Gosport;Hampshire;PO13 9RX;2392581172
116171;Grange Infant School;Franklin Road;Rowner;;Gosport;Hampshire;PO13 9TS;2392582984
116172;Alver Valley Junior School;21 Falcon Meadows Way;Rowner;;Gosport;Hampshire;PO13 8AA;2392583029
116173;Peel Common Infant School and Nursery Unit;The Drive;;;Gosport;Hampshire;PO13 0QD;1329234878
116174;Alver Valley Infant and Nursery School;21 Falcon Meadows Way;Rowner;;Gosport;Hampshire;PO13 8AA;2392581777
116175;Peel Common Junior School;The Drive;Rowner;;Gosport;Hampshire;PO13 0QD;1329281206
116176;Gomer Infant School;Pyrford Close;Alverstoke;;Gosport;Hampshire;PO12 2RP;2392580808
116177;Brockhurst Primary School;Avery Lane;;;Gosport;Hampshire;PO12 4SL;2392580471
116180;Lee-On-the-Solent Infant and Nursery School;Elmore Road;;;Lee-on-the-Solent;Hampshire;PO13 9DY;2392551767
116181;Gomer Junior School;Pyrford Close;Alverstoke;;Gosport;Hampshire;PO12 2RP;
116224;Orchard Lea Infant School;Kennedy Avenue;;;Fareham;Hampshire;PO15 6BJ;1329232563
116225;Orchard Lea Junior School;Kennedy Avenue;;;Fareham;Hampshire;PO15 6BJ;1329234471
116228;Hook Infant School;Church View;;;Hook;Hampshire;RG27 9NR;1256764487
116230;King's Furlong Infant School and Nursery;Upper Chestnut Drive;;;Basingstoke;Hampshire;RG21 8YJ;1256327024
116231;Kings Furlong Junior School;Upper Chestnut Drive;;;Basingstoke;Hampshire;RG21 8YJ;1256325324
116232;Fairfields Primary School;Council Road;;;Basingstoke;Hampshire;RG21 3DH;1256473886
116233;Park Primary School;Gloucester Road;;;Aldershot;Hampshire;GU11 3SL;1252324159
116234;Alderwood School;Belle Vue Road;;;Aldershot;Hampshire;GU12 4RZ;1252323494
116235;Newport Junior School;Newport Road;;;Aldershot;Hampshire;GU12 4PW;
116236;Park View Infant School;Pinkerton Road;South Ham;;Basingstoke;Hampshire;RG22 6RT;
116237;Park View Primary School;Pinkerton Road;;;Basingstoke;Hampshire;RG22 6RT;1256322616
116238;Worting Infant School;Old Kempshott Lane;;;Basingstoke;Hampshire;RG22 5ET;
116239;Worting Junior School;Chiltern Way;;;Basingstoke;Hampshire;RG22 5BB;
116240;Fernhill Primary School;Field Road;;;Farnborough;Hampshire;GU14 9FX;
116241;Harestock Primary School;Bramshaw Close;Harestock;Harestock Primary School;Winchester;Hampshire;SO22 6LU;1962881026
116242;Weeke Primary School;Stoney Lane;Weeke;;Winchester;Hampshire;SO22 6DR;1962882710
116243;Hazel Wood Infant School;Hazel Farm Road;Totton;;Southampton;Hampshire;SO40 8WU;2380666767
116244;Hart Plain Junior School;Hart Plain Avenue;Cowplain;;Waterlooville;Hampshire;PO8 8SA;2392263200
116245;Meadowlands Junior School;37 Woodcroft Lane;Lovedean;;Waterlooville;Hampshire;PO8 9QD;
116246;Southwood Infant School;Southwood Lane;Southwood;;Farnborough;Hampshire;GU14 0NE;1252375420
116247;Four Lanes Community Junior School;Hanmore Road;Chineham;;Basingstoke;Hampshire;RG24 8PQ;1256816326
116248;Queen's Inclosure Primary School;Cornelius Drive;;;Waterlooville;Hampshire;PO7 8NT;2392268067
116249;Berrywood Primary School;Maunsell Way;Hedge End;;Southampton;Hampshire;SO30 2TL;1489780068
116250;Woodlea Primary School;Atholl Road;Whitehill;;Bordon;Hampshire;GU35 9QX;1420476342
116255;Hatch Warren Junior School;Gershwin Road;;;Basingstoke;Hampshire;RG22 4PQ;1256328252
116256;Nightingale Primary School;Blackbird Road;;;Eastleigh;Hampshire;SO50 9JW;2380613588
116260;Emsworth Primary School;Victoria Road;;;Emsworth;Hampshire;PO10 7LX;1243375750
116264;Park House Primary School;Sparsholt Close;Leigh Park;;Havant;Hampshire;PO9 4AP;
116265;Morelands Primary School;Crookhorn Lane;Purbrook;Morelands Primary School;Waterlooville;Hampshire;PO7 5QL;2392253770
116266;Abbotts Ann Church of England Primary School;Duck Street;Abbotts Ann;;Andover;Hampshire;SP11 7FE;1264710244
116267;Saint Lawrence Church of England Primary School;Amery Hill;;;Alton;Hampshire;GU34 2BY;142084400
116268;Ampfield Church of England Primary School;Knapp Lane;Ampfield;;Romsey;Hampshire;SO51 9BT;1794368219
116269;Andover Church of England Primary School;East Street;;;Andover;Hampshire;SP10 1EP;1264352322
116270;Barton Stacey Church of England Primary School;The Green;Roberts Road;Barton Stacey;Winchester;Hampshire;SO21 3RY;1962760340
116271;Binsted Church of England Primary School;Church Street;Binsted;;Alton;Hampshire;GU34 4NX;142023200
116272;Blendworth CofE (C) Infant School;Blendworth;Horndean;;Waterlooville;Hampshire;PO8 0AB;
116273;Botley Church of England Controlled Primary School;52 High Street;Botley;;Southampton;Hampshire;SO30 2EA;1489782308
116274;Bransgore Church of England Primary School;Ringwood Road;Bransgore;;Christchurch;Dorset;BH23 8JH;
116275;Breamore Church of England Primary School;Salisbury Road;Breamore;;Fordingbridge;Hampshire;SP6 2EF;1725512286
116276;Brockenhurst Church of England Primary School & Pre-School;Sway Road;;Brockenhurst Ce Primary & Pre-School;Brockenhurst;Hampshire;SO42 7RX;1590623163
116277;Bursledon Church of England Infant School;Long Lane;Bursledon;;Southampton;Hampshire;SO31 8BZ;2380402869
116278;Bramley Church of England Primary School;Bramley Lane;Bramley;;Tadley;Hampshire;RG26 5AH;1256881339
116279;Bentley Church of England Primary School;School Lane;Bentley;;Farnham;Surrey;GU10 5JP;1420525010
116280;Catherington Church of England Infant School;316 Catherington Lane;Catherington;;Waterlooville;Hampshire;PO8 0TD;2392592263
116281;Chawton Church of England Primary School;Chawton;;;Alton;Hampshire;GU34 1SG;1420544381
116282;Copythorne CofE Infant School;Romsey Road;Copythorne;;Southampton;Hampshire;SO40 2PB;2380813340
116283;Durley Church of England Controlled Primary School;Durley Brook Road;Durley;;Southampton;Hampshire;SO32 2AR;1489860207
116284;East Meon Church of England Controlled Primary School;Chapel Street;East Meon;;Petersfield;Hampshire;GU32 1NR;1730823218
116285;Ecchinswell and Sydmonton Church of England Primary School;Ecchinswell;;;Newbury;Berkshire;RG20 4UA;1635298288
116286;St James Church of England Controlled Primary School;Bellevue Lane;;;Emsworth;Hampshire;PO10 7PX;1243372715
116287;Fareham Park CofE (Controlled) Junior School;Tewkesbury Avenue;;;Fareham;Hampshire;PO15 6LL;
116288;Four Marks Church of England Primary School;Five Lanes End;Four Marks;;Alton;Hampshire;GU34 5AS;1962772200
116289;Froxfield Church of England Primary and Pre-School;High Cross;Froxfield;;Petersfield;Hampshire;GU32 1EG;1730827251
116290;Grayshott Church of England Controlled Primary School;School Road;Grayshott;;Hindhead;Surrey;GU26 6LR;1428605596
116291;Hook-with-Warsash Church of England Primary School;Church Road;Warsash;;Southampton;Hampshire;SO31 9GF;
116292;Horndean Church of England Junior School;Five Heads Road;Horndean;;Waterlooville;Hampshire;PO8 9NW;2392592236
116293;Hurstbourne Tarrant Church of England Primary School;Church Street;Hurstbourne Tarrant;;Andover;Hampshire;SP11 0AX;1264736213
116294;Hyde Church of England Primary School;Hyde;;;Fordingbridge;Hampshire;SP6 2QL;1425653350
116295;Kingsclere Church of England Primary School;Ash Grove;Kingsclere;;Newbury;Berkshire;RG20 5RE;1635298583
116296;King's Somborne Church of England Primary School;Romsey Road;;;Stockbridge;Hampshire;SO20 6PN;1794388381
116297;St John the Baptist Church of England Primary School;Abshot Road;Titchfield Common;;Fareham;Hampshire;PO14 4NH;1489573276
116298;Long Sutton Church of England Primary School;Hyde Road;Long Sutton;;Hook;Hampshire;RG29 1ST;1256862238
116299;Marchwood Church of England Infant School;Twiggs Lane;Marchwood;;Southampton;Hampshire;SO40 4ZE;2380868819
116300;Medstead Church of England Primary School;Roedowns Road;Medstead;;Alton;Hampshire;GU34 5LG;1420562824
116301;Meonstoke Church of England Infant School;Chapel Road;;Meonstoke;Southampton;Hampshire;SO32 3NJ;1489877568
116302;Netley Marsh Church of England Infant School;Ringwood Road;Woodlands;;Southampton;Hampshire;SO40 7GY;2380862009
116303;Nursling Church of England Primary School;Nursling Street;Nursling;;Southampton;Hampshire;SO16 0XH;2380732289
116304;Otterbourne Church of England Primary School;Main Road;Otterbourne;Otterbourne Primary School;"Otterbourne; Winchester";Hampshire;SO21 2EQ;1962712020
116305;Overton Church of England Primary School;Court Drove;Overton;;Basingstoke;Hampshire;RG25 3ES;1256770249
116306;Oakley Church of England Junior School;Oakley Lane;Oakley;;Basingstoke;Hampshire;RG23 7JZ;1256780433
116307;Pennington Church of England Junior School;Priestlands Road;Pennington;;Lymington;Hampshire;SO41 8HX;1590672104
116308;Preston Candover Church of England Primary School;Preston Candover;;;Basingstoke;Hampshire;RG25 2EE;1256389278
116309;Ringwood Church of England Infant School;School Lane;;;Ringwood;Hampshire;BH24 1LG;1425473829
116310;Rowlands Castle St John's Church of England Controlled Primary School;Whichers Gate Road;;;Rowland's Castle;Hampshire;PO9 6BB;2392412095
116311;Rownhams St John's Church of England Primary School;Bakers Drove;Rownhams;;Southampton;Hampshire;SO16 8AD;2380736417
116312;Ropley CofE Primary School;Church Street;Ropley;;Alresford;Hampshire;SO24 0DS;1962772381
116313;Sarisbury Church of England Junior School;Allotment Road;Sarisbury Green;;Southampton;Hampshire;SO31 7AP;1489573000
116314;St John the Baptist Church of England Primary School;Solomons Lane;Waltham Chase;;Southampton;Hampshire;SO32 2LY;1329833141
116315;Sherborne St John Church of England Primary School;Church Lane;Sherborne St John;;Basingstoke;Hampshire;RG24 9HT;1256850180
116316;South Baddesley Church of England Primary School;South Baddesley;;;Lymington;Hampshire;SO41 5RP;1590626243
116317;Sparsholt Church of England Primary School;Woodman Lane;;Sparsholt;Winchester;Hampshire;SO21 2NR;1962776264
116318;St Luke's Church of England Primary School;West Beams Road;Sway;;Lymington;Hampshire;SO41 6AE;1590682431
116319;Steep Church of England Voluntary Controlled Primary School;95 Church Road;Steep;95 - 97 Church Road;Petersfield;Hampshire;GU32 2DE;1730263988
116320;Twyford St Mary's Church of England Primary School;School Road;Twyford;;Winchester;Hampshire;SO21 1QQ;1962713358
116321;Vernham Dean Gillum's Church of England Primary School;Vernham Dean;;;Andover;Hampshire;SP11 0JY;1264737241
116322;West Meon Church of England Voluntary Controlled Primary School;Church Lane;West Meon;;Petersfield;Hampshire;GU32 1LF;1730829213
116323;West Tytherley Church of England Primary School;West Tytherley;The Village;;Salisbury;Wiltshire;SP5 1JX;1794340338
116324;Whitchurch Church of England Primary School;Daniel Road;;;Whitchurch;Hampshire;RG28 7LS;1256892755
116325;Wickham Church of England Primary School;Buddens Road;Wickham;;Fareham;Hampshire;PO17 5HU;1329833065
116326;All Saints Church of England Primary School;St Catherine's Road;;;Winchester;Hampshire;SO23 0PS;1962853179
116327;Western Church of England Primary School;Browning Drive;;;Winchester;Hampshire;SO22 5AR;1962852591
116328;"St Thomas' Church of England Infant School; Woolton Hill";Woolton Hill;;;Newbury;Berkshire;RG20 9XF;1635253431
116329;St Bede Church of England Primary School;Gordon Road;;;Winchester;Hampshire;SO23 7DD;1962852463
116330;Liphook Church of England Controlled Junior School;Avenue Close;;;Liphook;Hampshire;GU30 7QE;1428722490
116331;Saint James' Church of England Primary School;Moorgreen Road;West End;;Southampton;Hampshire;SO30 3EG;2380900995
116332;St Michael's Church of England Controlled Infant School;Park Road;;;Aldershot;Hampshire;GU11 3PU;1252324300
116333;St Michael's Church of England Controlled Junior School;Church Lane East;;;Aldershot;Hampshire;GU11 3SS;1252322933
116334;Leesland Church of England Controlled Junior School;Gordon Road;;;Gosport;Hampshire;PO12 3QF;2392580962
116335;Leesland Church of England Controlled Infant School;Whitworth Road;;;Gosport;Hampshire;PO12 3NL;2392583872
116336;Newtown Church of England Voluntary Controlled Primary School;Queen's Road;;;Gosport;Hampshire;PO12 1JD;2392584048
116337;Rowledge Church of England Controlled Primary School;School Road;Rowledge;;Farnham;Surrey;GU10 4BW;1252792346
116338;Bartley Church of England Junior School;Winsor Road;Bartley;;Southampton;Hampshire;SO40 2HR;2380812173
116345;Whitewater Church of England Primary School;The Street;Rotherwick;;Hook;Hampshire;RG27 9BG;1256762637
116347;The Holme Church of England Controlled Primary School;Openfields;Headley;;Bordon;Hampshire;GU35 8PQ;
116348;Amport Church of England Primary School;The Green;Amport;;Andover;Hampshire;SP11 8BA;1264772396
116349;Appleshaw St Peter's CofE Primary School;Ragged Appleshaw;;;Andover;Hampshire;SP11 9HR;1264772210
116350;St Mary's Church of England Voluntary Aided Junior School;Belle Vue Road;Old Basing;;Basingstoke;Hampshire;RG24 7DE;1256465092
116351;St Mary's Bentworth Church of England Primary School;Church Street;Bentworth;;Alton;Hampshire;GU34 5RE;1420562117
116352;St Matthew's Church of England Aided Primary School;Drift Road;Blackmoor;;Liss;Hampshire;GU33 6BN;1420472844
116353;William Gilpin Church of England Primary School;Pilley Hill;Boldre;;Lymington;Hampshire;SO41 5QG;1590673460
116354;Compton All Saints Church of England Primary School;Compton Street;Compton;;Winchester;Hampshire;SO21 2AS;1962712035
116355;Dogmersfield Church of England Primary School;Chatter Alley;Dogmersfield;;Hook;Hampshire;RG27 8SS;1252616345
116356;St Martin's East Woodhay Church of England (Aided) Primary School;East End;;;Newbury;Berkshire;RG20 0AF;1635597796
116357;Charles Kingsley's Church of England Primary School;Glaston Hill Road;Eversley;;Hook;Hampshire;RG27 0LX;1189732187
116358;All Saints Church of England Aided Junior School;Leawood Road;;;Fleet;Hampshire;GU51 5AJ;1252615428
116359;Hatherden Church of England Primary School;Hatherden Lane;Hatherden;;Andover;Hampshire;SP11 0HT;1264735260
116360;Andrews' Endowed Church of England Primary School;92 London Road;Holybourne;;Alton;Hampshire;GU34 4EL;142083094
116361;John Keble Church of England Primary School;Hursley Park Road;Hursley;;Winchester;Hampshire;SO21 2LA;1962775241
116362;St Alban's Church of England Aided Primary School;St Alban's Road;West Leigh;;Havant;Hampshire;PO9 2JX;2392482072
116363;Lockerley Church of England Endowed Primary School;Butts Green;Lockerley;;Romsey;Hampshire;SO51 0JG;1794340485
116364;Longparish Church of England Primary School;Longparish;;;Andover;Hampshire;SP11 6PB;1264720317
116365;Lymington Church of England Infant School;Avenue Road;;;Lymington;Hampshire;SO41 9GP;1590673355
116366;St Michael and All Angels CofE Infant School;High Street;;;Lyndhurst;Hampshire;SO43 7BB;2380282244
116367;Milford-on-Sea Church of England Primary School;Lymington Road;Milford-on-Sea;;Lymington;Hampshire;SO41 0RF;
116368;Romsey Abbey Church of England Primary School;Church Lane;;;Romsey;Hampshire;SO51 8EP;1794512047
116369;Silchester Church of England Primary School;School Lane;Silchester;;Reading;Berkshire;RG7 2NJ;1189700256
116370;Smannell and Enham Church of England (Aided) Primary School;Smannell;;;Andover;Hampshire;SP11 6JJ;1264323201
116371;Swanmore Church of England Aided Primary School;Church Road;Swanmore;;Southampton;Hampshire;SO32 2PA;1489894555
116372;Upham Church of England Aided Primary School;Upham Street;Upham;;Southampton;Hampshire;SO32 1JD;1489860355
116373;Clatford Church of England Primary School;Village Street;Goodworth Clatford;;Andover;Hampshire;SP11 7RE;1264352091
116374;St Faith's Church of England Primary School;St Faith's Road;St Cross;;Winchester;Hampshire;SO23 9QB;1962854934
116375;"Kimpton; Thruxton and Fyfield Church of England Primary School";Thruxton Hill;Kimpton;;Andover;Hampshire;SP11 8NT;1264772297
116376;St Jude's Catholic Primary School;Bishopsfield Road;;;Fareham;Hampshire;PO14 1ND;1329235131
116377;"St Thomas More's Catholic Primary School; Havant";Hooks Lane;Bedhampton;;Havant;Hampshire;PO9 3DR;2392475909
116378;Our Lady and St Joseph Catholic Primary School;"Our Lady and St Joseph Catholic Primary School; 83a Ramley Road";Pennington;;Lymington;Hampshire;SO41 8GY;1590672711
116379;St Anne's Catholic Primary School;Pinkerton Road;South Ham;;Basingstoke;Hampshire;RG22 6RE;
116380;St Bede's Catholic Primary School;Popley Way;;;Basingstoke;Hampshire;RG24 9DX;1256533079
116381;"St Peter's Catholic Primary School; Winchester";Oliver's Battery Road North;;;Winchester;Hampshire;SO22 4JB;1962852820
116382;"St John the Baptist Catholic Primary School; Andover";Floral Way;Salisbury Road;;Andover;Hampshire;SP10 3PF;1264361806
116383;"St Swithun Wells Catholic Primary School; Chandlers Ford";Hillcrest Avenue;Chandler's Ford;;Eastleigh;Hampshire;SO53 2JP;2380266210
116387;Western Downland Church of England Aided Primary School;"Western Downland Church of England Aided Primary School; Rockbourne";;;Fordingbridge;Hampshire;SP6 3NA;1725518233
116388;St Peter's Church of England Aided Junior School;Church Avenue;;;Farnborough;Hampshire;GU14 7AP;1252543320
116389;St Mark's Church of England Aided Primary School;Queen's Road;;;Farnborough;Hampshire;GU14 6DU;1252544155
116390;St Patrick's Catholic Primary School;Whitefriars;Avenue Road;;Farnborough;Hampshire;GU14 7BW;1252542511
116391;St Bernadette's Catholic Primary School;Tile Barn Close;Cove;;Farnborough;Hampshire;GU14 8LS;1252548123
116392;Alverstoke Church of England Aided Junior School;The Avenue;Alverstoke;;Gosport;Hampshire;PO12 2JS;2392580450
116393;"St John's; Gosport Church of England Voluntary Aided Primary School";Grove Road;;;Gosport;Hampshire;PO12 4JH;2392582404
116394;St Mary's Catholic Primary School;Ann's Hill Road;;;Gosport;Hampshire;PO12 3NB;2392583979
116399;Selborne Church of England Primary School;School Lane;Selborne;;Alton;Hampshire;GU34 3JA;1420511213
116400;St John's Church of England Voluntary Aided Primary School;Kingsmill Road;;;Basingstoke;Hampshire;RG21 3JU;1256324121
116401;St Anthony's Catholic Primary School;Primate Road;Titchfield Common;;Fareham;Hampshire;PO14 4RP;
116402;St Francis Church of England Primary School;Pilgrims Close;Valley Park;Chandler's Ford;Eastleigh;Hampshire;SO53 4ST;2380271178
116403;Crookham Church of England Aided Infant School;Gallyhill Road;Church Crookham;;Fleet;Hampshire;GU52 6PU;1252615547
116404;Eggar's School;London Road;Holybourne;;Alton;Hampshire;GU34 4EQ;
116405;John Hanson Community School;Floral Way;;;Andover;Hampshire;SP10 3PB;1264352546
116406;Costello Technology College;Crossborough Hill;London Road;;Basingstoke;Hampshire;RG21 4AL;
116407;The Westgate School;Cheriton Road;;;Winchester;Hampshire;SO22 5AZ;1962854757
116408;The Mountbatten School A Language and Sports College;Whitenap Lane;;;Romsey;Hampshire;SO51 5SY;
116409;Amery Hill School;Amery Hill;;;Alton;Hampshire;GU34 2BZ;
116410;Cowplain Community School;Hart Plain Avenue;Cowplain;;Waterlooville;Hampshire;PO8 8RY;
116411;The Toynbee School;Bodycoats Road;Chandler's Ford;;Eastleigh;Hampshire;SO53 2PL;2380269026
116412;Court Moor School;Spring Woods;;;Fleet;Hampshire;GU52 7RY;1252615065
116413;The Hamble School;Satchell Lane;Hamble-le-Rice;;Southampton;Hampshire;SO31 4NE;2380452105
116414;Wildern School;Wildern Lane;Hedge End;;Southampton;Hampshire;SO30 4EJ;
116415;Noadswood School;North Road;Dibden Purlieu;;Southampton;Hampshire;SO45 4ZF;
116416;Priestlands School;North Street;Pennington;;Lymington;Hampshire;SO41 8FZ;
116417;Perins School A Community Sports College;Pound Hill;;;Alresford;Hampshire;SO24 9BS;
116418;Portchester Community School;White Hart Lane;Portchester;;Fareham;Hampshire;PO16 9BD;2392364399
116419;Brookfield Community School;Brook Lane;Sarisbury Green;;Southampton;Hampshire;SO31 7DU;1489576335
116420;Mill Chase Community Technology College;Mill Chase Road;;;Bordon;Hampshire;GU35 0ER;
116421;The Romsey School;Greatbridge Road;;;Romsey;Hampshire;SO51 8ZB;
116422;The Hurst School;Brimpton Road;Baughurst;;Tadley;Hampshire;RG26 5NL;1189817474
116423;The Hayling College;Church Road;;;Hayling Island;Hampshire;PO11 0NU;2392466241
116424;Swanmore College;New Road;Swanmore;;Southampton;Hampshire;SO32 2RB;1489892256
116425;Quilley School;Cherbourg Road;;;Eastleigh;Hampshire;SO50 5EL;
116426;Test Valley School;Roman Road;;;Stockbridge;Hampshire;SO20 6HA;1264810555
116427;Aldworth School;Western Way;;;Basingstoke;Hampshire;RG22 6HA;1256322691
116428;Crookhorn College;Stakes Hill Road;;;Waterlooville;Hampshire;PO7 5UD;2392251120
116429;Wyvern Technology College;Botley Road;Fair Oak;;Eastleigh;Hampshire;SO50 7AN;
116430;The Clere School;Earlstone Common;Burghclere;;Newbury;Berkshire;RG20 9HP;1635278372
116431;Harrow Way Community School;Harrow Way;;;Andover;Hampshire;SP10 3RH;1264364533
116432;Cranbourne;Wessex Close;;;Basingstoke;Hampshire;RG21 3NP;1256868600
116433;Yateley School;School Lane;;;Yateley;Hampshire;GU46 6NW;1252879222
116434;Hounsdown School;Jacobs Gutter Lane;Totton;;Southampton;Hampshire;SO40 9FT;
116435;Everest Community College;Oxford Way;;;Basingstoke;Hampshire;RG24 9UP;
116436;Calthorpe Park School;Hitches Lane;;;Fleet;Hampshire;GU51 5JA;1252613483
116437;Horndean Technology College;Barton Cross;Horndean;;Waterlooville;Hampshire;PO8 9PQ;2392594325
116438;Henry Beaufort School;Priors Dean Road;Harestock;;Winchester;Hampshire;SO22 6JJ;1962880073
116439;Thornden School;Winchester Road;Chandler's Ford;;Eastleigh;Hampshire;SO53 2DW;
116440;The Vyne Community School;Vyne Road;;;Basingstoke;Hampshire;RG21 5PB;1256473003
116441;Brighton Hill Community School;Brighton Way;;;Basingstoke;Hampshire;RG22 4HS;1256350606
116442;Frogmore Community College;Potley Hill Road;;;Yateley;Hampshire;GU46 6AG;1252408444
116443;Winton School;London Road;;;Andover;Hampshire;SP10 2PS;
116444;Fort Hill Community School;Kenilworth Road;Winklebury;;Basingstoke;Hampshire;RG23 8JQ;
116445;Crestwood Community School;Shakespeare Road;Boyatt Wood;;Eastleigh;Hampshire;SO50 4FZ;2380641232
116446;Cove School;St John's Road;Cove;;Farnborough;Hampshire;GU14 9RN;1252542397
116447;Fernhill School;Neville Duke Road;;;Farnborough;Hampshire;GU14 9BY;1276702540
116448;The Wavell School;Lynchford Road;;;Farnborough;Hampshire;GU14 6BH;1252341256
116449;Oak Farm Community School;Ballantyne Road;;;Farnborough;Hampshire;GU14 8SS;
116466;The Henry Cort Community College;Hillson Drive;;;Fareham;Hampshire;PO15 6PH;1329843127
116467;The Neville Lovett Community School and Continuing Education Centre;St Anne's Grove;;;Fareham;Hampshire;PO14 1JJ;
116468;Kings' School;Romsey Road;;;Winchester;Hampshire;SO22 5PN;1962861161
116470;The Connaught School;Tongham Road;;;Aldershot;Hampshire;GU12 4AS;
116471;Bridgemary School;Wych Lane;Bridgemary;;Gosport;Hampshire;PO13 0JN;
116472;Brune Park Community School;Military Road;;;Gosport;Hampshire;PO12 3BU;
116473;Park Community School;Middle Park Way;Leigh Park;;Havant;Hampshire;PO9 4BU;2392489800
116474;Staunton Community Sports College;Wakefords Way;;;Havant;Hampshire;PO9 5JD;
116475;Warblington School;Southleigh Road;;;Havant;Hampshire;PO9 2RR;2392475480
116477;Robert May's School;West Street;Odiham;;Hook;Hampshire;RG29 1NA;
116478;Bishop Challoner Catholic Secondary School;St Michael's Road;;;Basingstoke;Hampshire;RG22 6SR;1256462661
116480;Front Lawn Junior School;Broadmere Avenue;Leigh Park;;Havant;Hampshire;PO9 5HX;
116481;The Priory Primary School;Pamber End;;;Tadley;Hampshire;RG26 5QD;
116482;Abbotswood Junior School;Ringwood Road;Totton;;Southampton;Hampshire;SO40 8EB;2380863159
116483;Calmore Junior School;Calmore Drive;Calmore;;Southampton;Hampshire;SO40 2ZZ;2380865354
116484;St Joseph's Catholic Primary School;Bridge Road;;;Aldershot;Hampshire;GU11 3DD;
116485;Blackfield Primary School;Hampton Lane;Blackfield;;Southampton;Hampshire;SO45 1XA;
116486;Hordle CofE (VA) Primary School;Hordle Lane;Hordle;;Lymington;Hampshire;SO41 0FB;1425611657
116488;Ashley Junior School;Normans Way;Ashley Road;Ashley;New Milton;Hampshire;BH25 5FN;1425616510
116489;"St Peter's Catholic Primary School; Waterlooville";Stakes Hill Road;;;Waterlooville;Hampshire;PO7 7BP;2392262599
116490;Mill Rythe Infant School;Havant Road;;;Hayling Island;Hampshire;PO11 0PA;2392465531
116492;St Peter's CofE Junior School;Stilwell Close;;;Yateley;Hampshire;GU46 6XH;
116493;Hardley School and Sixth Form;Long Lane;Holbury;;Southampton;Hampshire;SO45 2PA;
116494;The Burgate School and Sixth Form Centre;Salisbury Road;;;Fordingbridge;Hampshire;SP6 1EZ;
116495;The Arnewood School;Gore Road;;;New Milton;Hampshire;BH25 6RS;
116496;Ringwood School;Parsonage Barn Lane;;;Ringwood;Hampshire;BH24 1SE;
116498;Crofton School;Marks Road;Stubbington;;Fareham;Hampshire;PO14 2AT;1329664251
116499;Testwood Sports College;Testwood Lane;Totton;;Southampton;Hampshire;SO40 3ZW;
116500;Bohunt School;Longmoor Road;;;Liphook;Hampshire;GU30 7NY;
116501;Bay House School;Gomer Lane;;;Gosport;Hampshire;PO12 2QP;
116502;Testbourne Community School;Micheldever Road;;;Whitchurch;Hampshire;RG28 7JF;1256892061
116503;Oaklands Catholic School;Stakes Hill Road;;;Waterlooville;Hampshire;PO7 7BW;
116504;Applemore College;Roman Road;Dibden Purlieu;;Southampton;Hampshire;SO45 4RQ;2380848804
116506;Purbrook Park School;Park Avenue;Purbrook;;Waterlooville;Hampshire;PO7 5DS;2392370351
116508;Cams Hill School;Shearwater Avenue;;;Fareham;Hampshire;PO16 8AH;
116510;The Petersfield School;Cranford Road;;;Petersfield;Hampshire;GU32 3LU;
116511;Osborne School;Athelstan Road;;;Winchester;Hampshire;SO23 7GA;1962854537
116512;Mayfield School;The White House;103 Anstey Road;;Alton;Hampshire;GU34 2RN;
116513;Rookwood School;Weyhill Road;;;Andover;Hampshire;SP10 3AL;1264325900
116514;Sherborne House School;39 Lakewood Road;Chandler's Ford;;Eastleigh;Hampshire;SO53 1EU;2380252440
116515;Embley;Embley Park;;;Romsey;Hampshire;SO51 6ZE;1794512206
116516;St Neot's School;St Neot's Road;Eversley;;Hook;Hampshire;RG27 0PN;1189732118
116517;Farnborough Hill;Farnborough Road;;;Farnborough;Hampshire;GU14 8AT;1252545197
116518;St Nicholas' School;Redfields House;Redfields Lane;Church Crookham;Fleet;Hampshire;GU52 0RF;1252850121
116519;Forres Sandle Manor School;Sandle Manor;;;Fordingbridge;Hampshire;SP6 1NS;1425653181
116520;Cheam School;Headley;Thatcham;Berkshire;Thatcham;;RG19 8LD;1635268242
116521;Lord Wandsworth College;Long Sutton;;;Hook;Hampshire;RG29 1TB;1256862201
116522;Durlston Court School;Becton Lane;Barton-on-Sea;Becton Lane Barton On Sea;New Milton;Hampshire;BH25 7AQ;1425610010
116524;Ballard School;Fernhill Lane;;;New Milton;Hampshire;BH25 5SU;1425626900
116525;Walhampton School;;;;Lymington;Hampshire;SO41 5ZG;1590613300
116526;Horris Hill School;Newtown;;Horris Hill Newtown;Newbury;Berkshire;RG20 9DJ;163540594
116527;Bedales School;Church Road;Steep;;Petersfield;Hampshire;GU32 2DG;1730300100
116528;"Stroud; the King Edward VI Preparatory School";Highwood House;Highwood Lane;;Romsey;Hampshire;SO51 9ZH;1794513231
116529;North Foreland Lodge School;;Sherfield-on-Loddon;;Hook;Hampshire;RG27 0HT;
116530;Norman Court;West Tytherley;;;Salisbury;Wiltshire;SP5 1NH;
116531;Rookesbury Park School;Southwick Road;Wickham;;Fareham;Hampshire;PO17 6HT;
116532;Winchester College;College Street;;;Winchester;Hampshire;SO23 9NA;1962621100
116533;Nethercliffe School;Hatherley Road;;;Winchester;Hampshire;SO22 6RS;
116534;St Swithuns;Alresford Road;Winchester;;;;SO21 1HA;1962835700
116535;The Pilgrims School;3 The Close;;;Winchester;Hampshire;SO23 9LT;1962854189
116536;Twyford School;High Street;Twyford;;Winchester;Hampshire;SO21 1NW;1962712269
116537;Alton School;Anstey Lane;;;Alton;Hampshire;GU34 2NG;142082070
116538;Marycourt School;27 Crescent Road;Alverstoke;;Gosport;Hampshire;PO12 2DJ;
116539;St Benedict's Convent School;Penton Lodge;;;Andover;Hampshire;SP11 0RD;
116540;Woodhill Preparatory School;Brook Lane;;;Botley;Hampshire;SO30 2ER;
116541;Wykeham House School;East Street;;;Fareham;Hampshire;PO16 0BW;
116542;Farleigh School;Red Rice;;Farleigh School;Andover;Hampshire;SP11 7PW;1264710766
116543;Salesian College;119 Reading Road;;;Farnborough;Hampshire;GU14 6PA;1252893000
116544;Rushmoor Independent Preparatory School;40 Reading Road;;;Farnborough;Hampshire;GU14 6NB;
116545;St Anne's School;13 MILVIL Road;;;Lee-on-the-Solent;Hampshire;PO13 9LU;
116546;Grey House Preparatory School;Mount Pleasant Road;Hartley Wintney;;Hook;Hampshire;RG27 8PW;
116547;Littlefield School;Midhurst Road;;;Liphook;Hampshire;GU30 7HT;
116548;Embley Park Junior School;Embley Park;;;Romsey;Hampshire;SO51 6ZA;
116549;Stanbridge Earls School;Stanbridge Lane;;;Romsey;Hampshire;SO51 0ZS;
116550;Daneshill School;Stratfield Turgis;;;Hook;Hampshire;RG27 0AR;1256882707
116551;West Hill Park School;West Hill Park;St Margarets Lane;Titchfield;Fareham;Hampshire;PO14 4BS;1329842356
116552;Prince's Mead School;Worthy Park House;Kings Worthy;Winchester;Hampshire;;SO21 1AN;1962888000
116553;Yateley Manor School;51 Reading Road;Yateley;;;;GU46 7UQ;1252405500
116554;Seafield School;Westlands Grove;Portchester;;Fareham;Hampshire;PO16 9AA;
116555;Hurst Lodge School;Yateley Hall;Firgrove Road;Yateley;Camberley;Hampshire;GU46 6HJ;1252227002
116556;Glenhurst School;16 Beechworth Road;;;Havant;Hampshire;PO9 1AX;
116557;Fairlands Nursery & Pre School;Church Road;Shedfield;;Southampton;Hampshire;SO32 2HY;
116558;Boundary Oak School;Roche Court;Wickham Road;;Fareham;Hampshire;PO17 5BL;1329280955
116559;Moyles Court School;Moyles Court;;;Ringwood;Hampshire;BH24 3NF;1425472856
116560;Avonlea School;8 Broadshard Lane;;;Ringwood;Hampshire;BH24 1RR;
116561;Inhurst House School;Brimpton Road;Baughurst;;Tadley;Hampshire;RG26 5JJ;
116562;Stockton House School;Stockton Avenue;;;Fleet;Hampshire;GU51 4NS;
116563;Meoncross School;65 Burnt House Lane;Fareham;Hampshire;;;PO14 2EF;1329662182
116564;Southlands School;Vicars Hill;Boldre;;Lymington;Hampshire;SO41 5QB;1590675350
116565;Hill House School;Rope Hill;Boldre;;Lymington;Hampshire;SO41 8NE;1590672147
116566;Hampshire Collegiate School Atherley;Grove Place;Upton Lane;Nursling;Southampton;Hampshire;SO16 0AB;
116574;Brockwood Park School;Brockwood Park;;Bramdean;Alresford;Hampshire;SO24 0LQ;1962771744
116575;Ditcham Park School;Ditcham Park;;;Petersfield;Hampshire;GU31 5RN;1730825659
116576;Hill Head Pre-Preparatory School;51 Crofton Lane;Hill Head;;Fareham;Hampshire;PO14 3LW;
116577;Rushmoor Independent Grammar School;40 Reading Road;;;Farnborough;Hampshire;GU14 6NB;
116578;Kwabena Montessori Independent School;17 Closeworth Road;;;Farnborough;Hampshire;GU14 6JH;
116579;Churcher's College;Ramshill;;;Petersfield;Hampshire;GU31 4AS;1730263033
116584;St Edward's School;Melchet Court;Sherfield English;;Romsey;Hampshire;SO51 6ZR;1794885252
116585;The King's School;Key House;Sarum Hill;;Basingstoke;Hampshire;RG21 8SR;
116586;Coxlease School;Clay Hill;Lyndhurst;Hampshire;Lyndhurst;Hampshire;SO43 7DE;2380283633
116587;The King's School;26 Quob Lane;West End;;Southampton;Hampshire;SO30 3HN;
116588;Grateley House School;Pond Lane;Grateley;;Andover;Hampshire;SP11 8TA;1264889751
116589;The Loddon School;Wildmoor Lane;Sherfield-on-Loddon;;Hook;Hampshire;RG27 0JD;1256884600
116590;Thorngrove School;The Mount;Highclere;;Newbury;Berkshire;RG20 9PS;1635253172
116591;Brookham School;Highfield Lane;;;Liphook;Hampshire;GU30 7LL;
116592;Vine School;Church Lane;Curdbridge;;Southampton;Hampshire;SO32 2DR;
116594;St Michael's School;Harts Lane;Burghclere;;Newbury;Berkshire;RG20 9JW;1635278137
116595;The King's School;Lakesmere House;Allington Lane;Fair Oak;Hampshire;;SO50 7DB;2380600986
116596;Woodside House School;Woodside House;Purbrook;;Waterlooville;Hampshire;PO7 5RT;
116599;Greenhill School;Horris Hill;Newtown;;Newbury;;RG20 9DJ;
116600;Riverside Community Special School;Scratchface Lane;Purbrook;;Waterlooville;Hampshire;PO7 5QD;2392250138
116601;Foxbury School;Perth Road;Bridgemary;;Gosport;Hampshire;PO13 0XX;
116602;Green Croft School;Ship Lane;;;Farnborough;Hampshire;GU14 8BX;
116603;Lakeside School;Winchester Road;Chandler's Ford;;Eastleigh;Hampshire;SO53 2DW;2380266633
116604;Norman Gate School;Vigo Road;;;Andover;Hampshire;SP10 1JZ;1264323423
116605;Maple Ridge School;Maple Crescent;;;Basingstoke;Hampshire;RG21 5SX;1256323639
116606;Forest Edge School;Lydlynch Road;Totton;;Southampton;Hampshire;SO40 3DW;
116607;Heathfield Special School;Oldbury Way;;;Fareham;Hampshire;PO14 3BN;1329512804
116608;The Grange;Croft Road;Church Lane East;;Aldershot;Hampshire;GU11 3HR;
116609;Icknield School;River Way;;;Andover;Hampshire;SP11 6LT;1264365297
116610;Tankerville Special School;Romsey Road;;;Eastleigh;Hampshire;SO50 9AJ;
116611;Rachel Madocks School;Eagle Avenue;Cowplain;;Waterlooville;Hampshire;PO8 9XP;2392241818
116612;Salterns School;Commercial Road;Totton;;Southampton;Hampshire;SO40 3AF;
116613;Greenacres School;Andover Road;;;Winchester;Hampshire;SO22 6AU;
116614;Limington House School;St Andrew's Road;;;Basingstoke;Hampshire;RG22 6PS;1256322148
116615;Whitedown School;Albert Road;;;Alton;Hampshire;GU34 1LP;
116617;Baycroft School;Gosport Road;Stubbington;;Fareham;Hampshire;PO14 2AE;1329664151
116618;St Francis Special School;Patchway Drive;Oldbury Way;;Fareham;Hampshire;PO14 3BN;1329512804
116619;The Meadow School;Mill Chase Road;;;Bordon;Hampshire;GU35 0HA;
116626;Dove House School;Sutton Road;;;Basingstoke;Hampshire;RG21 5SU;
116633;The Waterloo School;Warfield Avenue;;;Waterlooville;Hampshire;PO7 7JJ;2392255956
116634;Saxon Wood School;Barron Place;Rooksdown;;Basingstoke;Hampshire;RG24 9NH;1256356635
116635;Wolverdene Special School;22 Love Lane;;;Andover;Hampshire;SP10 2AF;1264362350
116636;Treloar School;Powell Drive;;Holybourne;Alton;Hampshire;GU34 4GL;1420547400
116637;Oak Lodge School;Roman Road;Dibden Purlieu;;Southampton;Hampshire;SO45 4RQ;2380847213
116638;Hawthorns School;Pack Lane;;;Basingstoke;Hampshire;RG22 5TH;
116639;Glenwood School;Washington Road;;;Emsworth;Hampshire;PO10 7NN;1243373120
116640;Samuel Cody School;Ballantyne Road;;;Farnborough;Hampshire;GU14 8SN;1252514194
116641;The Mark Way School;Batchelors Barn Road;;;Andover;Hampshire;SP10 1HR;1264351835
116642;Shepherds Down Special School;Shepherds Lane;Compton;;Winchester;Hampshire;SO21 2AJ;1962713445
116644;Medecroft Opportunity Centre;Sparkfork Road;;;Winchester;Hampshire;SO22 4NJ;
128684;Chawleigh Primary School;;;;;;;
128685;Countess Weir First School;;;;;;;
128686;Pinhoe First School;;;;;;;
128688;Lapford Primary School;;;;;;;
128697;Kingsteignton Junior School;;;;;;;
128698;Modbury County Primary School;;;;;;;
128699;Highampton County Primary School;;;;;;;
128708;Kingsteignton CofE Infant School;;;;;;;
128710;Morchard Bishop CofE Primary School;;;;;;;
128711;St Michael's CofE Middle School;;;;;;;
128714;Bickleigh Down CofE Primary School;;;;;;;
128732;Brunell School;;;;;;;
128733;The Little School;;;;;;;
128739;Convent of the Holy Family School;;;;;;;
128740;Heathercombe Brake School;;;;;;;
128741;Rocklands School;;;;;;;
128742;Dawlish College;;;;;;;
128744;Russell College;;;;;;;
128747;Lupton House Lower School;;;;;;;
128748;The Wooden House Nursery School;Chevithorne Barton;;;Tiverton;Devon;;
128749;Swallowcliff Special School;;;;;;;
128750;Ryalls County School;;;;;;;
128751;Torbay Preparatory School;;;;;;;
128752;Morice School;;;;;;;
128753;Plymouth Rudolf Steiner School;Hood Manor;Dartington;;Totnes;Devon;TQ9 6AB;
128756;Blyth School;;;;;;;
128979;Park House First School;Sparsholt Close;Leigh Park;;Havant;Hampshire;PO9 4AP;
128980;Park House Middle School;Sparsholt Close;Leigh Park;;Havant;Hampshire;PO9 4AP;
128989;Morelands Middle School;Crookhorn Lane;Purbrook;;Waterlooville;Hampshire;PO7 5QL;
128990;Morelands First School;Scratchface Lane;Purbrook;;Waterlooville;Hampshire;PO7 5QD;
129006;Newport County Junior School;Newport Road;;;Aldershot;Hampshire;GU12 4PW;
129007;Newport County Infant School;Newport Road;;;Aldershot;Hampshire;GU12 4PW;
129008;Fernhill County Junior School;Neville Duke Road;;;Farnborough;Hampshire;GU14 9BY;
129009;Fernhill County Infant School;Neville Duke Road;;;Farnborough;Hampshire;GU14 9BY;
129010;Belle Vue County Infant School;Belle Vue Road;;;Aldershot;Hampshire;GU12 4RZ;
129025;Purbrook CofE First School;5 London Road;Purbrook;;Waterlooville;Hampshire;PO7 5LH;
129049;Hilsea College;Oakley Hall;Oakley;;Basingstoke;Hampshire;RG23 7EJ;
129053;Holy Cross Junior School;Stakes Hill Road;;;Waterlooville;Hampshire;PO7 7BP;
129055;Stanley House School;St Michael's Road;;;Aldershot;Hampshire;GU12 4JW;
129057;Moreton House School;The Spain;;;Petersfield;Hampshire;GU32 3LA;
129069;Lord Mayor Treloar Hospital School;Chawton Park Road;;;Alton;Hampshire;GU34 1RJ;
129650;Wellstead Primary School;Wellstead Way;Hedge End;;Southampton;Hampshire;SO30 2LE;1489799351
130278;Kingscourt School;Catherington House;182 Five Heads Road;Catherington;Waterlooville;;PO8 9NJ;2392593251
130310;Chiltern Tutorial School;Otterbourne Halls;Cranbourne Drive;Otterbourne;Winchester;Hampshire;SO21 2ET;
130325;Mill Hill Primary School;Mill Road;;;Waterlooville;Hampshire;PO7 7DB;2392256955
130688;Basingstoke College of Technology;Worting Road;;;Basingstoke;Hampshire;RG21 8TN;1256354141
130689;Farnborough College of Technology;Boundary Road;;;Farnborough;Hampshire;GU14 6SB;1252407008
130690;Brockenhurst College;Lyndhurst Road;;;Brockenhurst;Hampshire;SO42 7ZE;1590625555
130691;Alton College;Old Odiham Road;;;Alton;Hampshire;GU34 2LX;
130692;Eastleigh College;Chestnut Avenue;;;Eastleigh;Hampshire;SO50 5FS;2380911000
130693;Fareham College;Bishopsfield Road;;;Fareham;Hampshire;PO14 1NH;1329815200
130694;Cricklade College;Charlton Road;;;Andover;Hampshire;SP10 1EJ;
130695;Havant and South Downs College;College Road;;;Waterlooville;Hampshire;PO7 8AA;2393879999
130698;Sparsholt College Hampshire;Westley Lane;Sparsholt;;Winchester;Hampshire;SO21 2NF;1962776441
130699;Totton College (Part of Nacro);Water Lane;Totton;;Southampton;Hampshire;SO40 3ZX;
130700;Queen Mary's College;Cliddesden Road;;;Basingstoke;Hampshire;RG21 3HF;
130701;Barton Peveril Sixth Form College;Chestnut Avenue;;;Eastleigh;Hampshire;SO50 5ZA;2380367200
130702;Havant College;New Road;;;Havant;Hampshire;PO9 1QL;
130703;The Sixth Form College Farnborough;Prospect Avenue;;;Farnborough;Hampshire;GU14 8JX;
130705;St Vincent College;Mill Lane;;;Gosport;Hampshire;PO12 4QA;
130708;Peter Symonds College;Owens Road;;;Winchester;Hampshire;SO22 6RX;1962857500
130861;Bushy Leaze Early Years Centre;Eastbrook Road;;;Alton;Hampshire;GU34 2DR;142087675
131068;Hollywater School;Mill Chase Road;;;Bordon;Hampshire;GU35 0HA;1420474396
131116;Holbrook Primary School;Wych Lane;Bridgemary;;Gosport;Hampshire;PO13 0JN;1329286011
131117;Bedenham Primary School;Bridgemary Avenue;;;Gosport;Hampshire;PO13 0XT;1329280445
131154;Chineham Park Primary School;Shakespeare Road;Popley;;Basingstoke;Hampshire;RG24 9BP;
131419;Oak Meadow Church of England Controlled Primary School;Tewkesbury Avenue;;;Fareham;Hampshire;PO15 6LL;
131420;Whiteley Primary School;Gull Coppice;Whiteley;;Fareham;Hampshire;PO15 7LA;1489881601
131450;St Mark's Church of England Primary School;Danebury Road;Hatch Warren;;Basingstoke;Hampshire;RG22 4US;1256346111
131516;Burnham Copse Primary School;Newchurch Road;;;Tadley;Hampshire;RG26 4HN;1189814498
131531;Tadley Court School;Tadley Common Road;Tadley;;Basingstoke;Hampshire;RG26 3TB;1189817720
131559;Henry Tyndale School;Ship Lane;;;Farnborough;Hampshire;GU14 8BX;1252544577
131624;The Sundridge Unit;Silvester Road;Cowplain;;Portsmouth;Hampshire;PO8 8TR;
131717;Knightwood Primary School;Bell Flower Way;Knightwood Road;Chandler's Ford;Eastleigh;Hampshire;SO53 4HW;2380261900
131891;The Fortune Centre of Riding Therapy;;Avon Tyrrell;Bransgore;Christchurch;Dorset;BH23 8EE;1425673297
131922;Minstead Training Project;Minstead Lodge;Minstead;;Nr Lyndhurst;Hampshire;SO43 7FT;2380812254
132078;Winchester Christian School;Co Kings School Senior;Hampshire;Lakesmere House Allington Lane;Eastleigh;Hampshire;SO50 7DB;
132143;St Anne's School;13 MILVIL Road;;;Lee-on-the-Solent;Hampshire;PO13 9LU;
132212;Great Binfields Primary School;Binfields Farm Lane;Chineham;;Basingstoke;Hampshire;RG24 8AJ;1256460532
132801;Elvetham Heath Primary School;The Key;Elvetham Heath;;Fleet;Hampshire;GU51 1DP;1252622205
132802;Cherrywood Community Primary School;Mayfield Road;;;Farnborough;Hampshire;GU14 8LH;1252547896
132890;Crookham CofE Infants' School;Gally Hill Road;Church Crookham;;Fleet;Hampshire;GU52 6PU;
132892;Hordle House School;Milford-on-Sea;;;Lymington;Hampshire;SO41 0NW;
132980;Treloar College;Powell Drive;Holybourne;;"Alton; Hants";Hampshire;GU34 4GL;1420547400
133068;Leigh House Hospital;Alresford Road;;;Winchester;Hampshire;SO21 1HD;1962825825
133085;Swanwick Lodge;Care of: Hampshire County Council;Castle Avenue;;Winchester;;SO23 8UJ;1489581913
133206;Kent Road Education Service;Kent Road;Bridgemary;;Gosport;Hampshire;PO13 0SP;
133228;Itchen Valley Education Trust;The Allbrook Education Centre;Pitmore Road;;Eastleigh;Hampshire;SO50 4LW;
133235;Eastbrook Education Trust;C/O 48 Windmill Hill;;;Alton;Hampshire;GU34 2SL;
133242;Solent Education Trust;109 East Cosham Road;;;Portsmouth;Hampshire;PO6 2BU;
133292;Micheldever CofE Primary School;Church Street;Micheldever;;Winchester;Hampshire;SO21 3DB;1962774213
133303;Sharps Copse Primary and Nursery School;Prospect Lane;;;Havant;Hampshire;PO9 5PE;2392484545
133581;Prospect School;Freeley Road;;;Havant;Hampshire;PO9 4AQ;2394006226
133778;The Key Education Centre;Tukes Avenue;;;Gosport;Hampshire;PO13 0SG;2392528653
133880;University of Winchester;Sparkford Road;;;Winchester;Hampshire;SO22 4NR;1962841515
133964;Grantham Farm Montessori School;Inhurst Lane;Baughurst;;Tadley;Hampshire;RG26 5JS;1189815821
134478;Focus School - Eastleigh Primary Campus;"The Mallard Centre; Nightingale Avenue";;;Eastleigh;Hampshire;SO50 9JJ;
134489;Thistledown Education Centre;St James Street;Ludgershall;;Andover;;SP11 9QF;
134502;Solent Education Trust;106 Park Lane;Bedhampton;;Havant;;PO9 3HN;
134652;Chiltern Primary School;Chiltern Way;;;Basingstoke;Hampshire;RG22 5BB;1256473791
134734;Cadland Primary School;Whitefield Road;;;Holbury;Hampshire;SO45 2HW;2380892341
134769;Sherfield School;Reading Road;Sherfield-on-Loddon;Hook;Hampshire;;RG27 0HU;1256884800
134844;Lanterns Nursery School and Extended Services;Bereweeke Road;;;Winchester;Hampshire;SO22 6AJ;1962860393
134869;Grangeside;Pack Lane;;;Basingstoke;Hampshire;RG22 5TH;
134945;Romsey Primary School;Mercer Way;;;Romsey;Hampshire;SO51 7PH;1794512362
135105;Jubilee School;84-86 Jubilee Road;;;Waterlooville;Hampshire;PO7 7RE;2392250963
135141;Three Counties Primary School;"Eastbrook Resource Centre; Vicarage Hill";;;Alton;Hampshire;GU34 2BT;
135240;Fair Ways School;New Road;Swanwick;Hampshire;Southampton;Hampshire;SO31 7HE;1489579011
135529;Woodcroft Primary;37 Woodcroft Lane;;;Waterlooville;Hampshire;PO8 9QD;2392593939
135690;The Ashwood Centre;Ashwood Way;;;Basingstoke;Hampshire;RG23 8AA;
135823;Forest Park School;Ringwood Road;Totton;;Southampton;Hampshire;SO40 8DZ;2380864949
135885;Cranford Park Primary;Cranford Park Drive;;;Yateley;Hampshire;GU46 6LB;1252870536
135887;Endeavour Primary School;East Anton Farm Road;;;Andover;Hampshire;SP11 6RD;1264310458
135939;Grangeside School;Pack Lane;;;Basingstoke;Hampshire;RG22 5TH;
136078;Barncroft Primary School;Park Lane;;;Havant;Hampshire;PO9 3HN;2392482331
136112;New Forest Small School;1 Southampton Road;;;Lyndhurst;Hampshire;SO43 7BU;2380284415
136156;Havant Academy;Wakefords Way;;;Havant;Hampshire;PO9 5JD;2393063592
136407;Pilgrims' Cross CofE Aided Primary School;Picket Twenty Way;;;Andover;Hampshire;SP11 6TY;1264365434
136447;The Priory Primary School;Pamber End;;;Tadley;Hampshire;RG26 5QD;1256850062
136640;The Mountbatten School;Whitenap Lane;;;Romsey;Hampshire;SO51 5SY;1794502502
136643;Bohunt School;Longmoor Road;;;Liphook;Hampshire;GU30 7NY;1428724324
136652;The Arnewood School;Gore Road;;;New Milton;Hampshire;BH25 6RS;1425625400
136654;Wildern School;Wildern Lane;Hedge End;;Southampton;Hampshire;SO30 4EJ;1489783473
136657;Ringwood School Academy;Parsonage Barn Lane;;;Ringwood;Hampshire;BH24 1SE;1425475000
136715;Thornden School;Winchester Road;Chandler's Ford;;Eastleigh;Hampshire;SO53 2DW;2380269722
136719;The Burgate School and Sixth Form;Salisbury Road;;;Fordingbridge;Hampshire;SP6 1EZ;1425652039
136816;Avon Tyrrell Youth Achievement Foundation;UK Youth;Avon Tyrrell;Avon Tyrrell Activity Centre;Bransgore;Hampshire;BH23 8EE;
136903;The Petersfield School;Cranford Road;;;Petersfield;Hampshire;GU32 3LU;1730263119
137113;Everest Community Academy;Oxford Way;;;Basingstoke;Hampshire;RG24 9UP;
137125;Noadswood School;North Road;Dibden Purlieu;;Southampton;Hampshire;SO45 4ZF;2380840025
137128;Perins School;Pound Hill;;;Alresford;Hampshire;SO24 9BS;1962734361
137129;Priestlands School;North Street;Pennington;;Lymington;Hampshire;SO41 8FZ;1590677033
137229;Hounsdown School;Jacobs Gutter Lane;Totton;;Southampton;Hampshire;SO40 9FT;2380862981
137239;The Romsey School;Greatbridge Road;;;Romsey;Hampshire;SO51 8ZB;1794512334
137279;New Forest School;Fawley Road;Fawley;Southampton;Hampshire;;SO45 1FJ;2330893629
137315;Testwood School;Testwood Lane;Totton;;Southampton;Hampshire;SO40 3ZW;2380862146
137345;Oaklands Catholic School;Stakes Hill Road;;;Waterlooville;Hampshire;PO7 7BW;2392259214
137403;St Anthony's Catholic Primary School;Primate Road;Titchfield Common;;Fareham;Hampshire;PO14 4RP;1489579100
137422;St Joseph's Catholic Primary School;Bridge Road;;;Aldershot;Hampshire;GU11 3DD;1252350583
137535;Amery Hill School;Amery Hill;;;Alton;Hampshire;GU34 2BZ;142084545
137538;Cams Hill School;Shearwater Avenue;;;Fareham;Hampshire;PO16 8AH;1329231641
137605;Dove House School;Sutton Road;;;Basingstoke;Hampshire;RG21 5SU;1256351555
137693;Bransgore Church of England Primary School;Ringwood Road;Bransgore;;Christchurch;Dorset;BH23 8JH;1425672272
137791;Bay House School;Gomer Lane;;;Gosport;Hampshire;PO12 2QP;2392587931
138038;The Cowplain School;Hart Plain Avenue;Cowplain;;Waterlooville;Hampshire;PO8 8RY;2392612020
138135;Robert May's School;West Street;Odiham;;Hook;Hampshire;RG29 1NA;1256702700
138139;Wellington Community Primary School;Alexandra Road;;;Aldershot;Hampshire;GU11 1QJ;1252326573
138184;Wyvern College;Botley Road;Fair Oak;;Eastleigh;Hampshire;SO50 7AN;2380692679
138242;Manor Church of England Infant School;Teachers Way;Holbury;;Southampton;Hampshire;SO45 2QG;2380897549
138287;The Costello School;Crossborough Hill;London Road;;Basingstoke;Hampshire;RG21 4AL;1256321263
138437;Bridgemary School;Wych Lane;Bridgemary;;Gosport;Hampshire;PO13 0JN;1329319966
138509;St Columba Church of England Primary Academy;Tewkesbury Avenue;;;Fareham;Hampshire;PO15 6LL;
138585;The New Forest Academy;Long Lane;Holbury;;Southampton;Hampshire;SO45 2PA;2380891192
138719;Hook-With-Warsash Church of England Academy;Church Road;Warsash;;Southampton;Hampshire;SO31 9GF;1489572393
138720;Eggar's School;London Road;Holybourne;;Alton;Hampshire;GU34 4EQ;1420541194
138920;Winton Community Academy;London Road;;;Andover;Hampshire;SP10 2PS;1264351822
139273;Front Lawn Primary Academy;Broadmere Avenue;Leigh Park;;Havant;Hampshire;PO9 5HX;2392475904
139548;Cornerstone CofE (VA) Primary School;Bluebell Way;Whiteley;;Fareham;;PO15 7QE;1489660750
139920;The Holme Church of England Primary School;Openfields;;;Headley;Hampshire;GU35 8PQ;1428714409
139944;Frogmore Junior School;Green Lane;Frogmore;Frogmore Junior School;Camberley;Surrey;GU17 0NY;1252873054
140006;Abbey House Independent Education and Care Limited;4 Foster Road;;;Gosport;Hampshire;PO12 2JJ;
140046;Clay Hill School;Clay Hill;;;Lyndhurst;Hampshire;SO43 7DE;2380283633
140069;Fareham Academy;St Anne's Grove;;;Fareham;Hampshire;PO14 1JJ;1329318003
140098;Milford-on-Sea Church of England Primary School;Lymington Road;Milford-on-Sea;;Lymington;Hampshire;SO41 0RF;1590642945
140182;Oakmoor School;Budds Lane;;;Bordon;Hampshire;GU35 0JB;1420472132
140211;Berewood Primary School;Kentidge Way;;;Waterlooville;Hampshire;PO7 3BE;2394006070
140690;The Cambridge Primary School;The Cambridge Primary School;Queens Avenue;Wellesley;Aldershot;Hampshire;GU11 4AA;1252314884
140732;LWS Academy;Montefiore Drive;Sarisbury Green;;Southampton;Hampshire;SO31 7NL;1489582684
141123;The Ashwood Academy;Ashwood Way;;;Basingstoke;Hampshire;RG23 8AA;1256474005
141187;The Coppice Spring Academy;Pack Lane;;;Basingstoke;Hampshire;RG22 5TH;1256336601
141249;Norman Court School;Norman Court;;;West Tytherely;Hampshire;SP5 1NH;
141473;Fawley Infant School;School Road;Fawley;;Southampton;Hampshire;SO45 1EA;2380897391
141474;Blackfield Primary School;Hampton Lane;Blackfield;;Southampton;Hampshire;SO45 1XA;2380893132
142906;The Eaglewood School;Culver Road;;;New Milton;Hampshire;BH25 6SY;1425460994
143698;Deer Park School;Sika Avenue;Hedge End;;Southampton;Hampshire;SO30 2HT;1489351100
143910;Home Farm School;Priory Lyndhurst;Clay Hill;;Lyndhurst;Hampshire;SO43 7DE;
144014;Brune Park Community School;Military Road;;;Gosport;Hampshire;PO12 3BU;2392616000
144093;Gomer Junior School;Pyrford Close;Alverstoke;;Gosport;Hampshire;PO12 2RP;2392524312
144808;Releasing Potential School;7 Kingscroft Court;Ridgway;Havant;;;PO9 1LS;2392479762
144882;Sun Hill Junior School;Sun Lane;;;Alresford;Hampshire;SO24 9NB;1962732801
144899;Farnborough Grange Nursery & Infant Community School;Moor Road;;;Farnborough;Hampshire;GU14 8HW;1252541879
145057;The Sixth Form College Farnborough;Prospect Avenue;;;Farnborough;Hampshire;GU14 8JX;1252688200
145125;Everest Community Academy;Oxford Way;;;Basingstoke;Hampshire;RG24 9UP;1256961330
145175;Queen Mary's College;Cliddesden Road;;;Basingstoke;Hampshire;RG21 3HF;1256417500
145229;St Vincent College;Mill Lane;;;Gosport;Hampshire;PO12 4QA;2392588311
145479;The Green Room School Kingsley;1 Old Park Farm;Forge Road;Kingsley;Borden;Hampshire;GU35 9LU;1420487706
146002;Bordon Junior School;Budds Lane;;;Bordon;Hampshire;GU35 0JB;1420472145
146244;Rowner Junior;Tichborne Way;Rowner;;Gosport;Hampshire;PO13 0BN;1329280299
146774;Kingsgate School;239 West Street;Fareham;Hampshire;;;PO16 0HZ;1329446921
147021;Oakfield Primary School;Sylvia Crescent;Totton;;Southampton;Hampshire;SO40 3LN;2380862530
147066;Boorley Park;Boorley Park Primary School;7 Nairn Road;Boorley Park;Botley;Hampshire;SO32 2SH;1489737970
147128;The Ferns Primary Academy;Field Road;;;Farnborough;Hampshire;GU14 9FX;127631554
147519;St Anne's Catholic Primary School;Pinkerton Road;South Ham;;Basingstoke;Hampshire;RG22 6RE;1256464165
147588;Inclusion Hampshire;"Office 5; the Clock Tower";Chineham Shopping Centre;;Chineham;Hampshire;RG24 8BQ;1256760800
147615;Compass Community School Hampshire;Kings Lodge;Homestead Road;Medstead;Alton;Hampshire;GU34 5NA;7843324836
147655;GLADE School;49 Junction Road;Totton;Hampshire;;;SO40 3BU;2380867036
147701;St Columba CE Primary School;Tewkesbury Avenue;;;Fareham;Hampshire;PO15 6LL;1329843226
147836;Barton Farm Primary Academy;Barton Farm Primary Academy;Glazier Road;Kings Barton;Winchester;Hampshire;SO22 6HS;1962798844
147852;Stoneham Park Primary Academy;21 Whieldon Way;North Stoneham Park;;Eastleigh;Hampshire;SO50 9SB;2380518833
147948;Marchwood Park Hospital School;Southampton Priory Hospital;Marchwood Park;Marchwood;Southampton;Hampshire;SO40 4DA;
148213;Awbridge Primary School;Danes Road;Awbridge;;Romsey;Hampshire;SO51 0HL;1794340407
148214;Wellow Primary School;Romsey Road;West Wellow;;Romsey;Hampshire;SO51 6BG;1794322201
148215;Weyford Nursery and Primary Academy;Weyford Nursery and Primary Academy;;Mill Chase Road;Bordon;Hampshire;GU35 0ET;1420472119
148216;Halterworth Primary School;Halterworth Lane;;;Romsey;Hampshire;SO51 9AD;1794512028
148343;The Austen Academy;Shakespeare Road;;The Austen Academy;BASINGSTOKE;Hampshire;RG24 9BP;1256236640
148385;Marnel Junior School;Shetland Road;Popley Way;;Basingstoke;Hampshire;RG24 9PT;1256328670
148744;Woodcot Primary School;Tukes Avenue;Bridgemary;;Gosport;Hampshire;PO13 0SG;1329234381
149028;Bere Clinic School;Hemlock Road;;;Waterlooville;Hampshire;PO8 8QT;2394314108
149140;Inclusion School;Bridgwater House;Jays Close;;Basingstoke;;RG22 4BS;1256437177
149425;Ashford Hill Primary School;Ashford Hill Road;Ashford Hill;;Thatcham;Berkshire;RG19 8BB;1189813822
